{"type":"FeatureCollection","features":[{"type":"Feature","properties":{"kind":"bicicletario","access":"livre","name":"Bicicletário CPTM","covered":true,"osm":"node/1808437623"},"geometry":{"type":"Point","coordinates":[-46.58903,-23.59214]}},{"type":"Feature","properties":{"kind":"paraciclo","access":"livre","osm":"node/1808437646","capacity":8},"geometry":{"type":"Point","coordinates":[-46.59056,-23.59313]}},{"type":"Feature","properties":{"kind":"paraciclo","access":"livre","capacity":5,"osm":"node/1974955980"},"geometry":{"type":"Point","coordinates":[-46.65753,-23.59014]}},{"type":"Feature","properties":{"kind":"paraciclo","access":"livre","osm":"node/2118345610"},"geometry":{"type":"Point","coordinates":[-46.49941,-23.48243]}},{"type":"Feature","properties":{"kind":"paraciclo","access":"livre","osm":"node/2279064241"},"geometry":{"type":"Point","coordinates":[-46.66298,-23.58823]}},{"type":"Feature","properties":{"kind":"paraciclo","access":"livre","capacity":8,"osm":"node/2279064246"},"geometry":{"type":"Point","coordinates":[-46.66105,-23.58546]}},{"type":"Feature","properties":{"kind":"paraciclo","access":"livre","osm":"node/2279064256"},"geometry":{"type":"Point","coordinates":[-46.66032,-23.5912]}},{"type":"Feature","properties":{"kind":"paraciclo","access":"livre","osm":"node/2279064261"},"geometry":{"type":"Point","coordinates":[-46.6592,-23.58932]}},{"type":"Feature","properties":{"kind":"paraciclo","access":"livre","osm":"node/2279064274"},"geometry":{"type":"Point","coordinates":[-46.6568,-23.58819]}},{"type":"Feature","properties":{"kind":"paraciclo","access":"livre","osm":"node/2279064296"},"geometry":{"type":"Point","coordinates":[-46.66285,-23.58864]}},{"type":"Feature","properties":{"kind":"paraciclo","access":"livre","capacity":4,"osm":"node/2418339514"},"geometry":{"type":"Point","coordinates":[-46.68244,-23.56325]}},{"type":"Feature","properties":{"kind":"bicicletario","access":"livre","name":"Bicicletário Kebab Paris","osm":"node/2513054757"},"geometry":{"type":"Point","coordinates":[-46.6799,-23.56451]}},{"type":"Feature","properties":{"kind":"paraciclo","access":"livre","capacity":2,"osm":"node/2537959703"},"geometry":{"type":"Point","coordinates":[-46.64276,-23.5878]}},{"type":"Feature","properties":{"kind":"paraciclo","access":"livre","operator":"Iracema Pães e Doces","capacity":9,"osm":"node/2542371071"},"geometry":{"type":"Point","coordinates":[-46.65336,-23.534]}},{"type":"Feature","properties":{"kind":"paraciclo","access":"livre","capacity":8,"osm":"node/2869109091"},"geometry":{"type":"Point","coordinates":[-46.68878,-23.55399]}},{"type":"Feature","properties":{"kind":"paraciclo","access":"livre","operator":"Instituto Parada Vital","capacity":225,"covered":true,"osm":"node/3033724125"},"geometry":{"type":"Point","coordinates":[-46.64044,-23.64624]}},{"type":"Feature","properties":{"kind":"bicicletario","access":"livre","covered":true,"osm":"node/3188305569","capacity":86},"geometry":{"type":"Point","coordinates":[-46.68418,-23.56607]}},{"type":"Feature","properties":{"kind":"paraciclo","access":"pago","name":"SENAI","operator":"Bike Sampa","capacity":12,"osm":"node/3296656399"},"geometry":{"type":"Point","coordinates":[-46.57368,-23.53676]}},{"type":"Feature","properties":{"kind":"paraciclo","access":"livre","osm":"node/3756403712"},"geometry":{"type":"Point","coordinates":[-46.63686,-23.54942]}},{"type":"Feature","properties":{"kind":"paraciclo","access":"livre","capacity":2,"osm":"node/3756623655"},"geometry":{"type":"Point","coordinates":[-46.65031,-23.56682]}},{"type":"Feature","properties":{"kind":"paraciclo","access":"livre","osm":"node/3756623657"},"geometry":{"type":"Point","coordinates":[-46.64753,-23.56891]}},{"type":"Feature","properties":{"kind":"paraciclo","access":"livre","capacity":4,"osm":"node/3756623658"},"geometry":{"type":"Point","coordinates":[-46.64669,-23.56958]}},{"type":"Feature","properties":{"kind":"paraciclo","access":"livre","capacity":2,"osm":"node/3756710171"},"geometry":{"type":"Point","coordinates":[-46.65234,-23.56506]}},{"type":"Feature","properties":{"kind":"paraciclo","access":"livre","capacity":2,"osm":"node/3756710172"},"geometry":{"type":"Point","coordinates":[-46.64922,-23.56761]}},{"type":"Feature","properties":{"kind":"paraciclo","access":"livre","capacity":3,"osm":"node/3756710173"},"geometry":{"type":"Point","coordinates":[-46.6487,-23.56808]}},{"type":"Feature","properties":{"kind":"paraciclo","access":"livre","osm":"node/3756710175"},"geometry":{"type":"Point","coordinates":[-46.64626,-23.56991]}},{"type":"Feature","properties":{"kind":"paraciclo","access":"livre","osm":"node/3756710176"},"geometry":{"type":"Point","coordinates":[-46.64566,-23.56998]}},{"type":"Feature","properties":{"kind":"paraciclo","access":"livre","osm":"node/3756710177"},"geometry":{"type":"Point","coordinates":[-46.64409,-23.57093]}},{"type":"Feature","properties":{"kind":"paraciclo","access":"livre","capacity":2,"osm":"node/3756710267"},"geometry":{"type":"Point","coordinates":[-46.64982,-23.56719]}},{"type":"Feature","properties":{"kind":"paraciclo","access":"livre","capacity":2,"osm":"node/3756710268"},"geometry":{"type":"Point","coordinates":[-46.64929,-23.56725]}},{"type":"Feature","properties":{"kind":"paraciclo","access":"livre","osm":"node/3756710269"},"geometry":{"type":"Point","coordinates":[-46.64792,-23.56826]}},{"type":"Feature","properties":{"kind":"paraciclo","access":"livre","osm":"node/3756710270"},"geometry":{"type":"Point","coordinates":[-46.64651,-23.56931]}},{"type":"Feature","properties":{"kind":"paraciclo","access":"livre","osm":"node/3756710271"},"geometry":{"type":"Point","coordinates":[-46.64589,-23.57022]}},{"type":"Feature","properties":{"kind":"paraciclo","access":"livre","capacity":4,"osm":"node/3756710272"},"geometry":{"type":"Point","coordinates":[-46.64476,-23.5707]}},{"type":"Feature","properties":{"kind":"paraciclo","access":"livre","osm":"node/3757483592"},"geometry":{"type":"Point","coordinates":[-46.64022,-23.56997]}},{"type":"Feature","properties":{"kind":"paraciclo","access":"livre","osm":"node/3757483593"},"geometry":{"type":"Point","coordinates":[-46.64022,-23.5698]}},{"type":"Feature","properties":{"kind":"paraciclo","access":"livre","osm":"node/3757483594"},"geometry":{"type":"Point","coordinates":[-46.63995,-23.57078]}},{"type":"Feature","properties":{"kind":"paraciclo","access":"livre","osm":"node/3757483595"},"geometry":{"type":"Point","coordinates":[-46.6406,-23.57729]}},{"type":"Feature","properties":{"kind":"paraciclo","access":"livre","osm":"node/3757483596"},"geometry":{"type":"Point","coordinates":[-46.64104,-23.57764]}},{"type":"Feature","properties":{"kind":"paraciclo","access":"livre","osm":"node/3757650400"},"geometry":{"type":"Point","coordinates":[-46.63971,-23.57182]}},{"type":"Feature","properties":{"kind":"paraciclo","access":"livre","osm":"node/3759018561","capacity":8},"geometry":{"type":"Point","coordinates":[-46.64103,-23.57551]}},{"type":"Feature","properties":{"kind":"paraciclo","access":"livre","osm":"node/3759018562"},"geometry":{"type":"Point","coordinates":[-46.6403,-23.5741]}},{"type":"Feature","properties":{"kind":"paraciclo","access":"livre","osm":"node/3759018566"},"geometry":{"type":"Point","coordinates":[-46.65833,-23.55993]}},{"type":"Feature","properties":{"kind":"paraciclo","access":"livre","covered":true,"osm":"node/3828870564"},"geometry":{"type":"Point","coordinates":[-46.54931,-23.69316]}},{"type":"Feature","properties":{"kind":"paraciclo","access":"livre","capacity":1,"osm":"node/4077481841"},"geometry":{"type":"Point","coordinates":[-46.70555,-23.57208]}},{"type":"Feature","properties":{"kind":"paraciclo","access":"livre","capacity":14,"osm":"node/4124207004"},"geometry":{"type":"Point","coordinates":[-46.63902,-23.54958]}},{"type":"Feature","properties":{"kind":"paraciclo","access":"livre","capacity":400,"covered":true,"osm":"node/4212956089"},"geometry":{"type":"Point","coordinates":[-46.638,-23.54414]}},{"type":"Feature","properties":{"kind":"paraciclo","access":"livre","capacity":2,"osm":"node/4247769552"},"geometry":{"type":"Point","coordinates":[-46.63451,-23.55221]}},{"type":"Feature","properties":{"kind":"paraciclo","access":"livre","osm":"node/4374472191"},"geometry":{"type":"Point","coordinates":[-46.516,-23.451]}},{"type":"Feature","properties":{"kind":"paraciclo","access":"livre","osm":"node/4418003590"},"geometry":{"type":"Point","coordinates":[-46.46552,-23.56647]}},{"type":"Feature","properties":{"kind":"paraciclo","access":"livre","osm":"node/4418003591"},"geometry":{"type":"Point","coordinates":[-46.46491,-23.56665]}},{"type":"Feature","properties":{"kind":"paraciclo","access":"livre","capacity":8,"osm":"node/4526925297"},"geometry":{"type":"Point","coordinates":[-46.6417,-23.54759]}},{"type":"Feature","properties":{"kind":"paraciclo","access":"livre","capacity":8,"osm":"node/4526925298"},"geometry":{"type":"Point","coordinates":[-46.64254,-23.54744]}},{"type":"Feature","properties":{"kind":"paraciclo","access":"livre","operator":"DeRose Method Vila Mariana","capacity":4,"osm":"node/4530075518"},"geometry":{"type":"Point","coordinates":[-46.64483,-23.59443]}},{"type":"Feature","properties":{"kind":"paraciclo","access":"livre","operator":"Museu da Casa Brasileira","capacity":40,"osm":"node/4895850622"},"geometry":{"type":"Point","coordinates":[-46.68468,-23.58017]}},{"type":"Feature","properties":{"kind":"paraciclo","access":"livre","osm":"node/4968620797"},"geometry":{"type":"Point","coordinates":[-46.62974,-23.57315]}},{"type":"Feature","properties":{"kind":"paraciclo","access":"livre","osm":"node/5266287489"},"geometry":{"type":"Point","coordinates":[-46.70319,-23.5258]}},{"type":"Feature","properties":{"kind":"paraciclo","access":"livre","osm":"node/5300766665"},"geometry":{"type":"Point","coordinates":[-46.62423,-23.71701]}},{"type":"Feature","properties":{"kind":"paraciclo","access":"livre","osm":"node/5362348341"},"geometry":{"type":"Point","coordinates":[-46.71658,-23.73026]}},{"type":"Feature","properties":{"kind":"paraciclo","access":"livre","osm":"node/5420875820"},"geometry":{"type":"Point","coordinates":[-46.71855,-23.72972]}},{"type":"Feature","properties":{"kind":"paraciclo","access":"livre","capacity":10,"osm":"node/5448142623"},"geometry":{"type":"Point","coordinates":[-46.57557,-23.52892]}},{"type":"Feature","properties":{"kind":"paraciclo","access":"livre","capacity":6,"osm":"node/5453991421"},"geometry":{"type":"Point","coordinates":[-46.62928,-23.57637]}},{"type":"Feature","properties":{"kind":"paraciclo","access":"livre","osm":"node/5454037721"},"geometry":{"type":"Point","coordinates":[-46.63281,-23.57974]}},{"type":"Feature","properties":{"kind":"paraciclo","access":"livre","operator":"Instituto de Física da USP","capacity":15,"covered":true,"osm":"node/5459382715"},"geometry":{"type":"Point","coordinates":[-46.73454,-23.56073]}},{"type":"Feature","properties":{"kind":"paraciclo","access":"livre","operator":"Instituto de Física da USP","capacity":20,"osm":"node/5459383821"},"geometry":{"type":"Point","coordinates":[-46.73534,-23.56002]}},{"type":"Feature","properties":{"kind":"paraciclo","access":"livre","operator":"IFUSP","capacity":20,"osm":"node/5459383824"},"geometry":{"type":"Point","coordinates":[-46.73612,-23.56144]}},{"type":"Feature","properties":{"kind":"paraciclo","access":"livre","operator":"FAU-USP","capacity":40,"covered":true,"osm":"node/5459392180"},"geometry":{"type":"Point","coordinates":[-46.7303,-23.56009]}},{"type":"Feature","properties":{"kind":"paraciclo","access":"livre","operator":"FEA-USP","capacity":50,"covered":true,"osm":"node/5459392181"},"geometry":{"type":"Point","coordinates":[-46.7282,-23.55796]}},{"type":"Feature","properties":{"kind":"paraciclo","access":"livre","capacity":6,"osm":"node/5459392182"},"geometry":{"type":"Point","coordinates":[-46.7264,-23.5602]}},{"type":"Feature","properties":{"kind":"bicicletario","access":"cadastro","name":"Bicicletário Estação Fradique Coutinho","operator":"ViaQuatro","capacity":86,"covered":true,"hours":{"weekday":[["04:40","24:00"]],"saturday":[["04:40","24:00"]],"sunday":[["04:40","24:00"]]},"osm":"node/5459447074"},"geometry":{"type":"Point","coordinates":[-46.6844,-23.56608]}},{"type":"Feature","properties":{"kind":"paraciclo","access":"livre","capacity":1,"osm":"node/5688129178"},"geometry":{"type":"Point","coordinates":[-46.67903,-23.55867]}},{"type":"Feature","properties":{"kind":"paraciclo","access":"livre","capacity":1,"osm":"node/5688129179"},"geometry":{"type":"Point","coordinates":[-46.67922,-23.5585]}},{"type":"Feature","properties":{"kind":"paraciclo","access":"livre","capacity":1,"osm":"node/5688129180"},"geometry":{"type":"Point","coordinates":[-46.6791,-23.55831]}},{"type":"Feature","properties":{"kind":"paraciclo","access":"livre","name":"paraciclo \"U\" invertido","capacity":12,"osm":"node/5766304757"},"geometry":{"type":"Point","coordinates":[-46.66485,-23.52681]}},{"type":"Feature","properties":{"kind":"paraciclo","access":"livre","capacity":5,"osm":"node/5810367160"},"geometry":{"type":"Point","coordinates":[-46.67719,-23.55998]}},{"type":"Feature","properties":{"kind":"paraciclo","access":"livre","capacity":1,"osm":"node/5928845611"},"geometry":{"type":"Point","coordinates":[-46.68548,-23.56479]}},{"type":"Feature","properties":{"kind":"paraciclo","access":"livre","capacity":8,"osm":"node/5993299772"},"geometry":{"type":"Point","coordinates":[-46.68385,-23.56399]}},{"type":"Feature","properties":{"kind":"paraciclo","access":"livre","capacity":2,"osm":"node/5993982657"},"geometry":{"type":"Point","coordinates":[-46.68329,-23.5637]}},{"type":"Feature","properties":{"kind":"paraciclo","access":"livre","capacity":4,"covered":true,"osm":"node/5993983088"},"geometry":{"type":"Point","coordinates":[-46.68323,-23.56362]}},{"type":"Feature","properties":{"kind":"paraciclo","access":"livre","operator":"Google Campus","osm":"node/6103813285"},"geometry":{"type":"Point","coordinates":[-46.6499,-23.57094]}},{"type":"Feature","properties":{"kind":"paraciclo","access":"livre","osm":"node/6109357785","capacity":64},"geometry":{"type":"Point","coordinates":[-46.58215,-23.58416]}},{"type":"Feature","properties":{"kind":"paraciclo","access":"livre","osm":"node/6109377185"},"geometry":{"type":"Point","coordinates":[-46.58726,-23.57677]}},{"type":"Feature","properties":{"kind":"paraciclo","access":"livre","operator":"Fridas Café Bar","capacity":3,"osm":"node/6111812748"},"geometry":{"type":"Point","coordinates":[-46.67797,-23.56009]}},{"type":"Feature","properties":{"kind":"paraciclo","access":"clientes","operator":"Museu de Arte Sacra","capacity":2,"osm":"node/6188377709"},"geometry":{"type":"Point","coordinates":[-46.63158,-23.53112]}},{"type":"Feature","properties":{"kind":"paraciclo","access":"livre","osm":"node/6193411352"},"geometry":{"type":"Point","coordinates":[-46.5878,-23.51515]}},{"type":"Feature","properties":{"kind":"paraciclo","access":"clientes","operator":"Mobike","covered":true,"hours":{"weekday":[["06:00","23:00"]],"saturday":[["06:00","23:00"]],"sunday":[["06:00","23:00"]]},"osm":"node/6361077254"},"geometry":{"type":"Point","coordinates":[-46.6965,-23.57203]}},{"type":"Feature","properties":{"kind":"paraciclo","access":"livre","capacity":4,"osm":"node/6418727764"},"geometry":{"type":"Point","coordinates":[-46.67537,-23.59298]}},{"type":"Feature","properties":{"kind":"paraciclo","access":"livre","capacity":2,"osm":"node/6542587115"},"geometry":{"type":"Point","coordinates":[-46.6922,-23.56922]}},{"type":"Feature","properties":{"kind":"paraciclo","access":"livre","capacity":2,"osm":"node/6548005900"},"geometry":{"type":"Point","coordinates":[-46.69187,-23.56973]}},{"type":"Feature","properties":{"kind":"paraciclo","access":"livre","capacity":5,"osm":"node/6550117561"},"geometry":{"type":"Point","coordinates":[-46.6922,-23.56842]}},{"type":"Feature","properties":{"kind":"paraciclo","access":"livre","capacity":1,"osm":"node/6550117562"},"geometry":{"type":"Point","coordinates":[-46.69212,-23.56856]}},{"type":"Feature","properties":{"kind":"paraciclo","access":"livre","capacity":1,"osm":"node/6550117563"},"geometry":{"type":"Point","coordinates":[-46.69204,-23.5687]}},{"type":"Feature","properties":{"kind":"paraciclo","access":"livre","osm":"node/6625433753"},"geometry":{"type":"Point","coordinates":[-46.62479,-23.54711]}},{"type":"Feature","properties":{"kind":"paraciclo","access":"livre","capacity":1,"osm":"node/6812469937"},"geometry":{"type":"Point","coordinates":[-46.65369,-23.54965]}},{"type":"Feature","properties":{"kind":"paraciclo","access":"livre","operator":"Parx","capacity":8,"osm":"node/6856423718"},"geometry":{"type":"Point","coordinates":[-46.68221,-23.58551]}},{"type":"Feature","properties":{"kind":"bicicletario","access":"livre","covered":true,"osm":"node/7072274406"},"geometry":{"type":"Point","coordinates":[-46.64538,-23.53967]}},{"type":"Feature","properties":{"kind":"bicicletario","access":"livre","covered":true,"osm":"node/7072274407"},"geometry":{"type":"Point","coordinates":[-46.64518,-23.53984]}},{"type":"Feature","properties":{"kind":"bicicletario","access":"livre","covered":true,"osm":"node/7072274408","capacity":41},"geometry":{"type":"Point","coordinates":[-46.64538,-23.54003]}},{"type":"Feature","properties":{"kind":"paraciclo","access":"livre","osm":"node/7085961167"},"geometry":{"type":"Point","coordinates":[-46.52113,-23.66941]}},{"type":"Feature","properties":{"kind":"paraciclo","access":"livre","osm":"node/7111841097"},"geometry":{"type":"Point","coordinates":[-46.51128,-23.6711]}},{"type":"Feature","properties":{"kind":"paraciclo","access":"livre","osm":"node/7124826294"},"geometry":{"type":"Point","coordinates":[-46.537,-23.64667]}},{"type":"Feature","properties":{"kind":"paraciclo","access":"livre","osm":"node/7158786458","capacity":6},"geometry":{"type":"Point","coordinates":[-46.63954,-23.54765]}},{"type":"Feature","properties":{"kind":"paraciclo","access":"livre","osm":"node/7200872150"},"geometry":{"type":"Point","coordinates":[-46.6342,-23.61194]}},{"type":"Feature","properties":{"kind":"paraciclo","access":"livre","capacity":20,"osm":"node/7619917449"},"geometry":{"type":"Point","coordinates":[-46.69663,-23.55973]}},{"type":"Feature","properties":{"kind":"paraciclo","access":"clientes","capacity":4,"osm":"node/7796710287"},"geometry":{"type":"Point","coordinates":[-46.68043,-23.56226]}},{"type":"Feature","properties":{"kind":"paraciclo","access":"livre","capacity":1,"osm":"node/8117120839"},"geometry":{"type":"Point","coordinates":[-46.61026,-23.48965]}},{"type":"Feature","properties":{"kind":"paraciclo","access":"livre","capacity":1,"osm":"node/8278561199"},"geometry":{"type":"Point","coordinates":[-46.70498,-23.57226]}},{"type":"Feature","properties":{"kind":"paraciclo","access":"livre","capacity":1,"osm":"node/8278561200"},"geometry":{"type":"Point","coordinates":[-46.70519,-23.57219]}},{"type":"Feature","properties":{"kind":"paraciclo","access":"livre","capacity":1,"osm":"node/8278625027"},"geometry":{"type":"Point","coordinates":[-46.70716,-23.57157]}},{"type":"Feature","properties":{"kind":"paraciclo","access":"livre","capacity":1,"osm":"node/8572668926"},"geometry":{"type":"Point","coordinates":[-46.6398,-23.59622]}},{"type":"Feature","properties":{"kind":"paraciclo","access":"livre","capacity":36,"osm":"node/8622638696"},"geometry":{"type":"Point","coordinates":[-46.64024,-23.54409]}},{"type":"Feature","properties":{"kind":"paraciclo","access":"livre","capacity":1,"osm":"node/8622695684"},"geometry":{"type":"Point","coordinates":[-46.64006,-23.60394]}},{"type":"Feature","properties":{"kind":"paraciclo","access":"livre","capacity":2,"osm":"node/8747340172"},"geometry":{"type":"Point","coordinates":[-46.63514,-23.58983]}},{"type":"Feature","properties":{"kind":"paraciclo","access":"livre","name":"Paraciclo UBS Jardim Vera Cruz","capacity":4,"hours":{"weekday":[["07:00","19:00"]],"saturday":[],"sunday":[]},"osm":"node/8901799448"},"geometry":{"type":"Point","coordinates":[-46.6891,-23.53855]}},{"type":"Feature","properties":{"kind":"paraciclo","access":"livre","capacity":10,"osm":"node/8905700783"},"geometry":{"type":"Point","coordinates":[-46.68372,-23.5508]}},{"type":"Feature","properties":{"kind":"paraciclo","access":"livre","capacity":2,"osm":"node/8910224106"},"geometry":{"type":"Point","coordinates":[-46.68586,-23.55078]}},{"type":"Feature","properties":{"kind":"paraciclo","access":"livre","capacity":2,"osm":"node/8978466034"},"geometry":{"type":"Point","coordinates":[-46.67559,-23.54075]}},{"type":"Feature","properties":{"kind":"paraciclo","access":"livre","capacity":8,"osm":"node/8978466035"},"geometry":{"type":"Point","coordinates":[-46.67658,-23.5415]}},{"type":"Feature","properties":{"kind":"paraciclo","access":"livre","capacity":2,"osm":"node/8978471238"},"geometry":{"type":"Point","coordinates":[-46.67007,-23.53556]}},{"type":"Feature","properties":{"kind":"paraciclo","access":"livre","capacity":2,"osm":"node/8978471239"},"geometry":{"type":"Point","coordinates":[-46.67116,-23.5368]}},{"type":"Feature","properties":{"kind":"paraciclo","access":"livre","capacity":2,"osm":"node/8978471240"},"geometry":{"type":"Point","coordinates":[-46.6722,-23.53638]}},{"type":"Feature","properties":{"kind":"paraciclo","access":"livre","capacity":2,"osm":"node/9001375189"},"geometry":{"type":"Point","coordinates":[-46.65388,-23.54692]}},{"type":"Feature","properties":{"kind":"paraciclo","access":"livre","covered":true,"osm":"node/9064032773"},"geometry":{"type":"Point","coordinates":[-46.86624,-23.49764]}},{"type":"Feature","properties":{"kind":"paraciclo","access":"livre","osm":"node/9283671877"},"geometry":{"type":"Point","coordinates":[-46.8731,-23.49725]}},{"type":"Feature","properties":{"kind":"paraciclo","access":"livre","capacity":4,"osm":"node/9306471052"},"geometry":{"type":"Point","coordinates":[-46.63408,-23.60553]}},{"type":"Feature","properties":{"kind":"paraciclo","access":"livre","capacity":5,"osm":"node/9503721084"},"geometry":{"type":"Point","coordinates":[-46.71294,-23.56541]}},{"type":"Feature","properties":{"kind":"bicicletario","access":"cadastro","operator":"Extra","covered":true,"osm":"node/9503750145"},"geometry":{"type":"Point","coordinates":[-46.61848,-23.58967]}},{"type":"Feature","properties":{"kind":"paraciclo","access":"livre","osm":"node/9506789989"},"geometry":{"type":"Point","coordinates":[-46.73001,-23.56459]}},{"type":"Feature","properties":{"kind":"bicicletario","access":"livre","name":"Bicicletário Shopping Internacional","operator":"Shopping Internacional Guarulhos","capacity":40,"covered":true,"osm":"node/9524929497"},"geometry":{"type":"Point","coordinates":[-46.55085,-23.48771]}},{"type":"Feature","properties":{"kind":"paraciclo","access":"livre","operator":"Serviço Social do Comércio","capacity":153,"covered":true,"osm":"node/9524952216"},"geometry":{"type":"Point","coordinates":[-46.50161,-23.45928]}},{"type":"Feature","properties":{"kind":"bicicletario","access":"cadastro","osm":"node/9581839280"},"geometry":{"type":"Point","coordinates":[-46.72335,-23.64055]}},{"type":"Feature","properties":{"kind":"paraciclo","access":"clientes","capacity":6,"osm":"node/9624245819"},"geometry":{"type":"Point","coordinates":[-46.57156,-23.55]}},{"type":"Feature","properties":{"kind":"paraciclo","access":"livre","operator":"Prefeitura do Campus USP da Capital","capacity":8,"osm":"node/9670524591"},"geometry":{"type":"Point","coordinates":[-46.73935,-23.55964]}},{"type":"Feature","properties":{"kind":"paraciclo","access":"livre","operator":"Shopping Butantã","covered":true,"osm":"node/9988675580"},"geometry":{"type":"Point","coordinates":[-46.72503,-23.58509]}},{"type":"Feature","properties":{"kind":"paraciclo","access":"livre","osm":"node/10015154401"},"geometry":{"type":"Point","coordinates":[-46.64035,-23.58693]}},{"type":"Feature","properties":{"kind":"paraciclo","access":"livre","osm":"node/10015154402"},"geometry":{"type":"Point","coordinates":[-46.64068,-23.5871]}},{"type":"Feature","properties":{"kind":"paraciclo","access":"livre","osm":"node/10015154403"},"geometry":{"type":"Point","coordinates":[-46.64082,-23.58717]}},{"type":"Feature","properties":{"kind":"paraciclo","access":"livre","capacity":2,"osm":"node/10015154405"},"geometry":{"type":"Point","coordinates":[-46.64311,-23.58794]}},{"type":"Feature","properties":{"kind":"paraciclo","access":"livre","capacity":2,"osm":"node/10015154406"},"geometry":{"type":"Point","coordinates":[-46.64358,-23.5881]}},{"type":"Feature","properties":{"kind":"paraciclo","access":"livre","capacity":2,"osm":"node/10015154407"},"geometry":{"type":"Point","coordinates":[-46.64414,-23.58829]}},{"type":"Feature","properties":{"kind":"paraciclo","access":"livre","capacity":2,"osm":"node/10015154408"},"geometry":{"type":"Point","coordinates":[-46.64487,-23.58852]}},{"type":"Feature","properties":{"kind":"paraciclo","access":"livre","osm":"node/10015154411"},"geometry":{"type":"Point","coordinates":[-46.64723,-23.58936]}},{"type":"Feature","properties":{"kind":"paraciclo","access":"livre","osm":"node/10015154412"},"geometry":{"type":"Point","coordinates":[-46.6475,-23.5894]}},{"type":"Feature","properties":{"kind":"paraciclo","access":"livre","osm":"node/10015154413"},"geometry":{"type":"Point","coordinates":[-46.64766,-23.58941]}},{"type":"Feature","properties":{"kind":"paraciclo","access":"livre","osm":"node/10015154414"},"geometry":{"type":"Point","coordinates":[-46.64776,-23.58946]}},{"type":"Feature","properties":{"kind":"paraciclo","access":"livre","capacity":3,"osm":"node/10054475600"},"geometry":{"type":"Point","coordinates":[-46.66072,-23.6071]}},{"type":"Feature","properties":{"kind":"paraciclo","access":"livre","capacity":8,"osm":"node/10716697835"},"geometry":{"type":"Point","coordinates":[-46.19725,-23.52015]}},{"type":"Feature","properties":{"kind":"paraciclo","access":"livre","capacity":6,"osm":"node/10716770734"},"geometry":{"type":"Point","coordinates":[-46.56295,-23.67702]}},{"type":"Feature","properties":{"kind":"paraciclo","access":"livre","capacity":4,"osm":"node/10716770735"},"geometry":{"type":"Point","coordinates":[-46.55685,-23.67796]}},{"type":"Feature","properties":{"kind":"paraciclo","access":"livre","capacity":5,"osm":"node/10716770736"},"geometry":{"type":"Point","coordinates":[-46.55772,-23.68036]}},{"type":"Feature","properties":{"kind":"bicicletario","access":"clientes","operator":"Golden Square Shopping","covered":true,"osm":"node/10716770737"},"geometry":{"type":"Point","coordinates":[-46.55789,-23.68391]}},{"type":"Feature","properties":{"kind":"paraciclo","access":"livre","operator":"Secretaria de Finanças de São Bernardo do Campo","capacity":6,"osm":"node/10716770738"},"geometry":{"type":"Point","coordinates":[-46.55739,-23.68017]}},{"type":"Feature","properties":{"kind":"bicicletario","access":"clientes","operator":"Supermercado Sonda/Decathlon","capacity":6,"covered":true,"osm":"node/10716770739"},"geometry":{"type":"Point","coordinates":[-46.54686,-23.68594]}},{"type":"Feature","properties":{"kind":"paraciclo","access":"livre","operator":"Prefeitura de São Bernardo do Campo","capacity":2,"osm":"node/10716770740"},"geometry":{"type":"Point","coordinates":[-46.55072,-23.68828]}},{"type":"Feature","properties":{"kind":"paraciclo","access":"livre","operator":"Prefeitura de São Bernardo do Campo","capacity":2,"osm":"node/10716770741"},"geometry":{"type":"Point","coordinates":[-46.54821,-23.68897]}},{"type":"Feature","properties":{"kind":"paraciclo","access":"livre","capacity":30,"osm":"node/10716770744"},"geometry":{"type":"Point","coordinates":[-46.57195,-23.63171]}},{"type":"Feature","properties":{"kind":"paraciclo","access":"livre","capacity":4,"osm":"node/10737875200"},"geometry":{"type":"Point","coordinates":[-46.56569,-23.67736]}},{"type":"Feature","properties":{"kind":"paraciclo","access":"livre","capacity":4,"osm":"node/10737875201"},"geometry":{"type":"Point","coordinates":[-46.56384,-23.67737]}},{"type":"Feature","properties":{"kind":"paraciclo","access":"livre","capacity":4,"osm":"node/10884345687"},"geometry":{"type":"Point","coordinates":[-46.64613,-23.56109]}},{"type":"Feature","properties":{"kind":"paraciclo","access":"livre","capacity":7,"osm":"node/10942531167"},"geometry":{"type":"Point","coordinates":[-46.89693,-23.47857]}},{"type":"Feature","properties":{"kind":"paraciclo","access":"livre","capacity":30,"osm":"node/10946630022"},"geometry":{"type":"Point","coordinates":[-46.71286,-23.56042]}},{"type":"Feature","properties":{"kind":"paraciclo","access":"pago","capacity":1,"osm":"node/10970000643"},"geometry":{"type":"Point","coordinates":[-46.63792,-23.50337]}},{"type":"Feature","properties":{"kind":"paraciclo","access":"clientes","capacity":10,"osm":"node/10970003827"},"geometry":{"type":"Point","coordinates":[-46.64919,-23.50775]}},{"type":"Feature","properties":{"kind":"paraciclo","access":"livre","capacity":8,"osm":"node/10983231436"},"geometry":{"type":"Point","coordinates":[-46.69071,-23.54682]}},{"type":"Feature","properties":{"kind":"paraciclo","access":"livre","capacity":6,"osm":"node/10985370809"},"geometry":{"type":"Point","coordinates":[-46.6584,-23.56279]}},{"type":"Feature","properties":{"kind":"bicicletario","access":"clientes","covered":true,"osm":"node/11010623223"},"geometry":{"type":"Point","coordinates":[-46.64507,-23.48239]}},{"type":"Feature","properties":{"kind":"paraciclo","access":"livre","capacity":20,"covered":true,"osm":"node/11012625188"},"geometry":{"type":"Point","coordinates":[-46.73096,-23.55316]}},{"type":"Feature","properties":{"kind":"paraciclo","access":"livre","capacity":10,"covered":true,"osm":"node/11040015280"},"geometry":{"type":"Point","coordinates":[-46.73101,-23.55261]}},{"type":"Feature","properties":{"kind":"paraciclo","access":"livre","capacity":50,"covered":true,"osm":"node/11073784378"},"geometry":{"type":"Point","coordinates":[-46.71748,-23.56146]}},{"type":"Feature","properties":{"kind":"paraciclo","access":"livre","capacity":2,"osm":"node/11108337281"},"geometry":{"type":"Point","coordinates":[-46.68617,-23.56523]}},{"type":"Feature","properties":{"kind":"paraciclo","access":"livre","capacity":10,"osm":"node/11156056611"},"geometry":{"type":"Point","coordinates":[-46.73155,-23.55536]}},{"type":"Feature","properties":{"kind":"paraciclo","access":"clientes","capacity":10,"covered":true,"osm":"node/11156056612"},"geometry":{"type":"Point","coordinates":[-46.73174,-23.55457]}},{"type":"Feature","properties":{"kind":"paraciclo","access":"livre","capacity":8,"osm":"node/11156056622"},"geometry":{"type":"Point","coordinates":[-46.73701,-23.56225]}},{"type":"Feature","properties":{"kind":"paraciclo","access":"livre","capacity":20,"covered":true,"osm":"node/11156164699"},"geometry":{"type":"Point","coordinates":[-46.72955,-23.55389]}},{"type":"Feature","properties":{"kind":"paraciclo","access":"livre","capacity":10,"covered":true,"osm":"node/11156164702"},"geometry":{"type":"Point","coordinates":[-46.73246,-23.55646]}},{"type":"Feature","properties":{"kind":"paraciclo","access":"livre","capacity":20,"osm":"node/11156164703"},"geometry":{"type":"Point","coordinates":[-46.72136,-23.55977]}},{"type":"Feature","properties":{"kind":"paraciclo","access":"livre","capacity":12,"osm":"node/11156164704"},"geometry":{"type":"Point","coordinates":[-46.71601,-23.5628]}},{"type":"Feature","properties":{"kind":"paraciclo","access":"livre","capacity":10,"covered":true,"osm":"node/11156176308"},"geometry":{"type":"Point","coordinates":[-46.72489,-23.56224]}},{"type":"Feature","properties":{"kind":"paraciclo","access":"clientes","capacity":5,"osm":"node/11156176310"},"geometry":{"type":"Point","coordinates":[-46.72662,-23.56715]}},{"type":"Feature","properties":{"kind":"paraciclo","access":"livre","capacity":5,"covered":true,"osm":"node/11157629047"},"geometry":{"type":"Point","coordinates":[-46.72025,-23.55751]}},{"type":"Feature","properties":{"kind":"paraciclo","access":"livre","capacity":5,"osm":"node/11157629048"},"geometry":{"type":"Point","coordinates":[-46.72557,-23.55871]}},{"type":"Feature","properties":{"kind":"paraciclo","access":"livre","capacity":10,"osm":"node/11157629056"},"geometry":{"type":"Point","coordinates":[-46.72807,-23.55745]}},{"type":"Feature","properties":{"kind":"paraciclo","access":"livre","capacity":1,"osm":"node/11158962478"},"geometry":{"type":"Point","coordinates":[-46.69496,-23.5611]}},{"type":"Feature","properties":{"kind":"paraciclo","access":"livre","capacity":1,"osm":"node/11158962479"},"geometry":{"type":"Point","coordinates":[-46.69455,-23.56137]}},{"type":"Feature","properties":{"kind":"paraciclo","access":"livre","capacity":10,"covered":true,"osm":"node/11159372240"},"geometry":{"type":"Point","coordinates":[-46.72189,-23.5625]}},{"type":"Feature","properties":{"kind":"paraciclo","access":"livre","capacity":2,"osm":"node/11166898336"},"geometry":{"type":"Point","coordinates":[-46.70794,-23.5537]}},{"type":"Feature","properties":{"kind":"paraciclo","access":"livre","capacity":2,"osm":"node/11166898337"},"geometry":{"type":"Point","coordinates":[-46.70824,-23.55308]}},{"type":"Feature","properties":{"kind":"paraciclo","access":"livre","capacity":6,"osm":"node/11166898338"},"geometry":{"type":"Point","coordinates":[-46.70935,-23.55287]}},{"type":"Feature","properties":{"kind":"paraciclo","access":"livre","capacity":10,"osm":"node/11167417741"},"geometry":{"type":"Point","coordinates":[-46.72562,-23.55797]}},{"type":"Feature","properties":{"kind":"paraciclo","access":"livre","capacity":2,"osm":"node/11170235761"},"geometry":{"type":"Point","coordinates":[-46.68516,-23.56499]}},{"type":"Feature","properties":{"kind":"paraciclo","access":"livre","capacity":10,"osm":"node/11222521484"},"geometry":{"type":"Point","coordinates":[-46.68506,-23.56664]}},{"type":"Feature","properties":{"kind":"paraciclo","access":"livre","capacity":8,"osm":"node/11267309027"},"geometry":{"type":"Point","coordinates":[-46.72968,-23.57484]}},{"type":"Feature","properties":{"kind":"paraciclo","access":"livre","capacity":20,"osm":"node/11305184919"},"geometry":{"type":"Point","coordinates":[-46.7271,-23.55977]}},{"type":"Feature","properties":{"kind":"paraciclo","access":"livre","capacity":6,"osm":"node/11386142290"},"geometry":{"type":"Point","coordinates":[-46.72156,-23.55956]}},{"type":"Feature","properties":{"kind":"paraciclo","access":"livre","capacity":4,"osm":"node/11398839691"},"geometry":{"type":"Point","coordinates":[-46.73596,-23.55873]}},{"type":"Feature","properties":{"kind":"paraciclo","access":"livre","capacity":4,"osm":"node/11398839692"},"geometry":{"type":"Point","coordinates":[-46.73605,-23.55854]}},{"type":"Feature","properties":{"kind":"paraciclo","access":"livre","capacity":8,"covered":true,"osm":"node/11409624758"},"geometry":{"type":"Point","coordinates":[-46.65592,-23.53395]}},{"type":"Feature","properties":{"kind":"paraciclo","access":"livre","capacity":8,"osm":"node/11417699980"},"geometry":{"type":"Point","coordinates":[-46.73212,-23.55862]}},{"type":"Feature","properties":{"kind":"paraciclo","access":"livre","capacity":2,"osm":"node/11428873163"},"geometry":{"type":"Point","coordinates":[-46.68768,-23.55901]}},{"type":"Feature","properties":{"kind":"paraciclo","access":"livre","capacity":6,"osm":"node/11592953535"},"geometry":{"type":"Point","coordinates":[-46.67708,-23.63862]}},{"type":"Feature","properties":{"kind":"paraciclo","access":"livre","capacity":10,"osm":"node/11727915987"},"geometry":{"type":"Point","coordinates":[-46.64843,-23.55007]}},{"type":"Feature","properties":{"kind":"paraciclo","access":"livre","osm":"node/11807591039"},"geometry":{"type":"Point","coordinates":[-46.73177,-23.55928]}},{"type":"Feature","properties":{"kind":"paraciclo","access":"livre","osm":"node/11812379851"},"geometry":{"type":"Point","coordinates":[-46.72043,-23.55779]}},{"type":"Feature","properties":{"kind":"paraciclo","access":"livre","capacity":10,"osm":"node/11812469403"},"geometry":{"type":"Point","coordinates":[-46.72116,-23.55767]}},{"type":"Feature","properties":{"kind":"paraciclo","access":"livre","covered":true,"osm":"node/11812469404"},"geometry":{"type":"Point","coordinates":[-46.71966,-23.55784]}},{"type":"Feature","properties":{"kind":"paraciclo","access":"livre","capacity":4,"osm":"node/11813987080"},"geometry":{"type":"Point","coordinates":[-46.66764,-23.56242]}},{"type":"Feature","properties":{"kind":"paraciclo","access":"livre","capacity":15,"covered":true,"osm":"node/11819794628"},"geometry":{"type":"Point","coordinates":[-46.7211,-23.55906]}},{"type":"Feature","properties":{"kind":"paraciclo","access":"livre","capacity":30,"covered":true,"osm":"node/11828429823"},"geometry":{"type":"Point","coordinates":[-46.72367,-23.56304]}},{"type":"Feature","properties":{"kind":"paraciclo","access":"livre","capacity":10,"covered":true,"osm":"node/11829247316"},"geometry":{"type":"Point","coordinates":[-46.73275,-23.55683]}},{"type":"Feature","properties":{"kind":"paraciclo","access":"livre","capacity":8,"osm":"node/11837439736"},"geometry":{"type":"Point","coordinates":[-46.66044,-23.54426]}},{"type":"Feature","properties":{"kind":"paraciclo","access":"livre","capacity":6,"covered":true,"osm":"node/11839210733"},"geometry":{"type":"Point","coordinates":[-46.64909,-23.54472]}},{"type":"Feature","properties":{"kind":"paraciclo","access":"livre","capacity":4,"osm":"node/11839441372"},"geometry":{"type":"Point","coordinates":[-46.69794,-23.56135]}},{"type":"Feature","properties":{"kind":"paraciclo","access":"livre","capacity":10,"osm":"node/11884934501"},"geometry":{"type":"Point","coordinates":[-46.73375,-23.55578]}},{"type":"Feature","properties":{"kind":"paraciclo","access":"livre","capacity":10,"osm":"node/11888792944"},"geometry":{"type":"Point","coordinates":[-46.71487,-23.56344]}},{"type":"Feature","properties":{"kind":"paraciclo","access":"livre","capacity":6,"osm":"node/12063037120"},"geometry":{"type":"Point","coordinates":[-46.72596,-23.5576]}},{"type":"Feature","properties":{"kind":"paraciclo","access":"livre","capacity":20,"osm":"node/12063093348"},"geometry":{"type":"Point","coordinates":[-46.72743,-23.5577]}},{"type":"Feature","properties":{"kind":"paraciclo","access":"livre","capacity":6,"osm":"node/12063107643"},"geometry":{"type":"Point","coordinates":[-46.72676,-23.55798]}},{"type":"Feature","properties":{"kind":"paraciclo","access":"livre","capacity":5,"osm":"node/12077322331"},"geometry":{"type":"Point","coordinates":[-46.63427,-23.55263]}},{"type":"Feature","properties":{"kind":"paraciclo","access":"livre","capacity":6,"osm":"node/12100669183"},"geometry":{"type":"Point","coordinates":[-46.72638,-23.55766]}},{"type":"Feature","properties":{"kind":"paraciclo","access":"livre","capacity":20,"osm":"node/12120261588"},"geometry":{"type":"Point","coordinates":[-46.63663,-23.54455]}},{"type":"Feature","properties":{"kind":"paraciclo","access":"livre","capacity":10,"osm":"node/12132503802"},"geometry":{"type":"Point","coordinates":[-46.69038,-23.58938]}},{"type":"Feature","properties":{"kind":"paraciclo","access":"livre","osm":"node/12132511855"},"geometry":{"type":"Point","coordinates":[-46.68635,-23.58336]}},{"type":"Feature","properties":{"kind":"paraciclo","access":"livre","operator":"Smart Fit","osm":"node/12197675849"},"geometry":{"type":"Point","coordinates":[-46.66542,-23.60109]}},{"type":"Feature","properties":{"kind":"paraciclo","access":"livre","osm":"node/12197768759"},"geometry":{"type":"Point","coordinates":[-46.71458,-23.56471]}},{"type":"Feature","properties":{"kind":"paraciclo","access":"livre","osm":"node/12216947291"},"geometry":{"type":"Point","coordinates":[-46.67068,-23.55434]}},{"type":"Feature","properties":{"kind":"paraciclo","access":"livre","capacity":4,"osm":"node/12228190914"},"geometry":{"type":"Point","coordinates":[-46.66073,-23.55784]}},{"type":"Feature","properties":{"kind":"paraciclo","access":"livre","osm":"node/12282353275"},"geometry":{"type":"Point","coordinates":[-46.71108,-23.62897]}},{"type":"Feature","properties":{"kind":"paraciclo","access":"pago","capacity":2,"osm":"node/12294504125"},"geometry":{"type":"Point","coordinates":[-46.60244,-23.45763]}},{"type":"Feature","properties":{"kind":"paraciclo","access":"livre","covered":true,"osm":"node/12336933410"},"geometry":{"type":"Point","coordinates":[-46.85719,-23.5175]}},{"type":"Feature","properties":{"kind":"paraciclo","access":"livre","osm":"node/12402750978"},"geometry":{"type":"Point","coordinates":[-46.73199,-23.56214]}},{"type":"Feature","properties":{"kind":"paraciclo","access":"livre","osm":"node/12402750988"},"geometry":{"type":"Point","coordinates":[-46.73257,-23.56092]}},{"type":"Feature","properties":{"kind":"paraciclo","access":"livre","osm":"node/12416076748"},"geometry":{"type":"Point","coordinates":[-46.46112,-23.48398]}},{"type":"Feature","properties":{"kind":"paraciclo","access":"livre","capacity":4,"osm":"node/12442545568"},"geometry":{"type":"Point","coordinates":[-46.69066,-23.56475]}},{"type":"Feature","properties":{"kind":"paraciclo","access":"livre","osm":"node/12479197177"},"geometry":{"type":"Point","coordinates":[-46.55746,-23.63288]}},{"type":"Feature","properties":{"kind":"paraciclo","access":"livre","osm":"node/12479197178"},"geometry":{"type":"Point","coordinates":[-46.55776,-23.63356]}},{"type":"Feature","properties":{"kind":"paraciclo","access":"livre","capacity":2,"osm":"node/12479451348"},"geometry":{"type":"Point","coordinates":[-46.64444,-23.50658]}},{"type":"Feature","properties":{"kind":"paraciclo","access":"livre","osm":"node/12487024229"},"geometry":{"type":"Point","coordinates":[-46.65855,-23.56268]}},{"type":"Feature","properties":{"kind":"paraciclo","access":"livre","osm":"node/12516648560"},"geometry":{"type":"Point","coordinates":[-46.72695,-23.57946]}},{"type":"Feature","properties":{"kind":"paraciclo","access":"livre","osm":"node/12734033444"},"geometry":{"type":"Point","coordinates":[-46.05842,-23.45761]}},{"type":"Feature","properties":{"kind":"paraciclo","access":"livre","osm":"node/12791919414"},"geometry":{"type":"Point","coordinates":[-46.03076,-23.41909]}},{"type":"Feature","properties":{"kind":"paraciclo","access":"livre","capacity":4,"osm":"node/12881384513"},"geometry":{"type":"Point","coordinates":[-46.73262,-23.55806]}},{"type":"Feature","properties":{"kind":"paraciclo","access":"livre","capacity":6,"osm":"node/12952963412"},"geometry":{"type":"Point","coordinates":[-46.72294,-23.56047]}},{"type":"Feature","properties":{"kind":"paraciclo","access":"livre","capacity":20,"osm":"node/12985796296"},"geometry":{"type":"Point","coordinates":[-46.65728,-23.5415]}},{"type":"Feature","properties":{"kind":"paraciclo","access":"livre","capacity":2,"osm":"node/12988216585"},"geometry":{"type":"Point","coordinates":[-46.6394,-23.58097]}},{"type":"Feature","properties":{"kind":"paraciclo","access":"livre","capacity":7,"osm":"node/12992858405"},"geometry":{"type":"Point","coordinates":[-46.72149,-23.55986]}},{"type":"Feature","properties":{"kind":"paraciclo","access":"livre","capacity":7,"osm":"node/12992889767"},"geometry":{"type":"Point","coordinates":[-46.72147,-23.55982]}},{"type":"Feature","properties":{"kind":"paraciclo","access":"livre","capacity":12,"covered":true,"osm":"node/12999636530"},"geometry":{"type":"Point","coordinates":[-46.72204,-23.56251]}},{"type":"Feature","properties":{"kind":"paraciclo","access":"livre","capacity":2,"osm":"node/13007570077"},"geometry":{"type":"Point","coordinates":[-46.64128,-23.58735]}},{"type":"Feature","properties":{"kind":"paraciclo","access":"livre","capacity":10,"osm":"node/13029799949"},"geometry":{"type":"Point","coordinates":[-46.68216,-23.55848]}},{"type":"Feature","properties":{"kind":"paraciclo","access":"livre","osm":"node/13134600918"},"geometry":{"type":"Point","coordinates":[-46.63132,-23.64777]}},{"type":"Feature","properties":{"kind":"paraciclo","access":"livre","capacity":2,"osm":"node/13343366972"},"geometry":{"type":"Point","coordinates":[-46.64168,-23.58642]}},{"type":"Feature","properties":{"kind":"paraciclo","access":"clientes","capacity":3,"osm":"node/13356541649"},"geometry":{"type":"Point","coordinates":[-46.68204,-23.56183]}},{"type":"Feature","properties":{"kind":"paraciclo","access":"livre","capacity":8,"osm":"node/13359181409"},"geometry":{"type":"Point","coordinates":[-46.69196,-23.56321]}},{"type":"Feature","properties":{"kind":"paraciclo","access":"livre","capacity":3,"osm":"node/13359181410"},"geometry":{"type":"Point","coordinates":[-46.68786,-23.55656]}},{"type":"Feature","properties":{"kind":"paraciclo","access":"livre","capacity":8,"osm":"node/13362907575"},"geometry":{"type":"Point","coordinates":[-46.62161,-23.51346]}},{"type":"Feature","properties":{"kind":"paraciclo","access":"livre","capacity":8,"osm":"node/13363478735"},"geometry":{"type":"Point","coordinates":[-46.62161,-23.51346]}},{"type":"Feature","properties":{"kind":"paraciclo","access":"livre","osm":"node/13391531601"},"geometry":{"type":"Point","coordinates":[-46.64876,-23.55068]}},{"type":"Feature","properties":{"kind":"paraciclo","access":"livre","osm":"node/13451210889"},"geometry":{"type":"Point","coordinates":[-46.6645,-23.52497]}},{"type":"Feature","properties":{"kind":"paraciclo","access":"livre","osm":"node/13465119124"},"geometry":{"type":"Point","coordinates":[-46.71902,-23.56665]}},{"type":"Feature","properties":{"kind":"paraciclo","access":"livre","osm":"node/13480330806"},"geometry":{"type":"Point","coordinates":[-46.62892,-23.57265]}},{"type":"Feature","properties":{"kind":"paraciclo","access":"livre","osm":"node/13526846921"},"geometry":{"type":"Point","coordinates":[-46.73061,-23.5689]}},{"type":"Feature","properties":{"kind":"paraciclo","access":"livre","osm":"node/13878987540"},"geometry":{"type":"Point","coordinates":[-46.705,-23.63791]}},{"type":"Feature","properties":{"kind":"paraciclo","access":"livre","osm":"node/13878987541"},"geometry":{"type":"Point","coordinates":[-46.70327,-23.63847]}},{"type":"Feature","properties":{"kind":"bicicletario","access":"livre","operator":"Instituto de biociências - USP","capacity":7,"covered":true,"osm":"node/13913415691"},"geometry":{"type":"Point","coordinates":[-46.72991,-23.566]}},{"type":"Feature","properties":{"kind":"paraciclo","access":"livre","capacity":5,"osm":"node/13913415692"},"geometry":{"type":"Point","coordinates":[-46.73003,-23.56499]}},{"type":"Feature","properties":{"kind":"bicicletario","access":"cadastro","name":"Bicicletário Estação USP Leste","operator":"CPTM","capacity":270,"covered":true,"hours":{"weekday":[["04:00","23:59"]],"saturday":[["04:00","23:59"]],"sunday":[["04:00","23:59"]]},"osm":"way/138566122"},"geometry":{"type":"Point","coordinates":[-46.50335,-23.48598]}},{"type":"Feature","properties":{"kind":"bicicletario","access":"cadastro","name":"Bicicletário Estação Primavera - Interlagos","operator":"CPTM","capacity":226,"covered":true,"hours":{"weekday":[["04:00","23:59"]],"saturday":[["04:00","23:59"]],"sunday":[["04:00","23:59"]]},"osm":"way/163500497"},"geometry":{"type":"Point","coordinates":[-46.69195,-23.72239]}},{"type":"Feature","properties":{"kind":"paraciclo","access":"livre","capacity":15,"osm":"way/257316920"},"geometry":{"type":"Point","coordinates":[-46.58187,-23.63292]}},{"type":"Feature","properties":{"kind":"bicicletario","access":"cadastro","name":"Bicicletário Terminal Campo Limpo","operator":"Socicam","capacity":64,"covered":true,"osm":"way/325219437"},"geometry":{"type":"Point","coordinates":[-46.77335,-23.63125]}},{"type":"Feature","properties":{"kind":"paraciclo","access":"clientes","osm":"way/390223828"},"geometry":{"type":"Point","coordinates":[-46.45377,-23.48583]}},{"type":"Feature","properties":{"kind":"paraciclo","access":"livre","osm":"way/422126327"},"geometry":{"type":"Point","coordinates":[-46.72999,-23.55835]}},{"type":"Feature","properties":{"kind":"paraciclo","access":"livre","osm":"way/422943782"},"geometry":{"type":"Point","coordinates":[-46.72566,-23.5582]}},{"type":"Feature","properties":{"kind":"bicicletario","access":"cadastro","name":"Bicicletário Estação Butantã","operator":"ViaQuatro","capacity":149,"covered":true,"hours":{"weekday":[["06:00","22:00"]],"saturday":[["06:00","22:00"]],"sunday":[["06:00","22:00"]]},"biometric":true,"osm":"way/466687595"},"geometry":{"type":"Point","coordinates":[-46.70845,-23.57153]}},{"type":"Feature","properties":{"kind":"paraciclo","access":"livre","osm":"way/488389907"},"geometry":{"type":"Point","coordinates":[-46.73248,-23.54587]}},{"type":"Feature","properties":{"kind":"paraciclo","access":"livre","osm":"way/500455010","capacity":2},"geometry":{"type":"Point","coordinates":[-46.70143,-23.56472]}},{"type":"Feature","properties":{"kind":"bicicletario","access":"cadastro","name":"Bicicletário Terminal Pinheiros","operator":"Socicam","capacity":34,"covered":true,"osm":"way/535689027"},"geometry":{"type":"Point","coordinates":[-46.7021,-23.56709]}},{"type":"Feature","properties":{"kind":"bicicletario","access":"cadastro","name":"Bicicletário Estação Franco da Rocha","operator":"CPTM","capacity":180,"covered":true,"hours":{"weekday":[["04:00","23:59"]],"saturday":[["04:00","23:59"]],"sunday":[["04:00","23:59"]]},"osm":"way/540762601"},"geometry":{"type":"Point","coordinates":[-46.7262,-23.33]}},{"type":"Feature","properties":{"kind":"paraciclo","access":"livre","capacity":6,"osm":"way/590859350"},"geometry":{"type":"Point","coordinates":[-46.66649,-23.56262]}},{"type":"Feature","properties":{"kind":"bicicletario","access":"cadastro","name":"Bicicletário Terminal Varginha","operator":"Socicam","capacity":26,"covered":true,"hours":"24h","osm":"way/618678688"},"geometry":{"type":"Point","coordinates":[-46.71662,-23.76691]}},{"type":"Feature","properties":{"kind":"bicicletario","access":"cadastro","name":"Bicicletário Terminal AE Carvalho","operator":"Socicam","capacity":42,"covered":true,"osm":"way/623339450"},"geometry":{"type":"Point","coordinates":[-46.4756,-23.51761]}},{"type":"Feature","properties":{"kind":"bicicletario","access":"cadastro","name":"Bicicletário Estação Grajaú","operator":"Via Mobilidade","capacity":178,"covered":true,"hours":{"weekday":[["04:00","23:59"]],"saturday":[["04:00","23:59"]],"sunday":[["04:00","23:59"]]},"osm":"way/664883313"},"geometry":{"type":"Point","coordinates":[-46.69619,-23.73606]}},{"type":"Feature","properties":{"kind":"bicicletario","access":"cadastro","name":"Bicicletário Terminal Pirituba","operator":"Socicam","capacity":156,"covered":true,"osm":"way/682137699"},"geometry":{"type":"Point","coordinates":[-46.72685,-23.48704]}},{"type":"Feature","properties":{"kind":"paraciclo","access":"livre","osm":"way/683026733"},"geometry":{"type":"Point","coordinates":[-46.36786,-23.54062]}},{"type":"Feature","properties":{"kind":"bicicletario","access":"cadastro","name":"Bicicletário Terminal Água Espraiada","operator":"Socicam","capacity":32,"covered":true,"osm":"way/698745615"},"geometry":{"type":"Point","coordinates":[-46.69461,-23.61403]}},{"type":"Feature","properties":{"kind":"bicicletario","access":"cadastro","name":"Bicicletário Estação Campo Belo","operator":"ViaMobilidade","capacity":144,"covered":true,"hours":{"weekday":[["06:00","22:00"]],"saturday":[["06:00","22:00"]],"sunday":[["06:00","22:00"]]},"osm":"way/698759080"},"geometry":{"type":"Point","coordinates":[-46.68248,-23.61857]}},{"type":"Feature","properties":{"kind":"bicicletario","access":"cadastro","name":"Bicicletário Estação Suzano","operator":"CPTM","capacity":576,"covered":true,"hours":{"weekday":[["04:00","23:59"]],"saturday":[["04:00","23:59"]],"sunday":[["04:00","23:59"]]},"osm":"way/704227866"},"geometry":{"type":"Point","coordinates":[-46.30765,-23.53522]}},{"type":"Feature","properties":{"kind":"paraciclo","access":"livre","name":"Acesso Principal Ciclovia Marginal Pinheiros","osm":"way/708149106"},"geometry":{"type":"Point","coordinates":[-46.68411,-23.69488]}},{"type":"Feature","properties":{"kind":"bicicletario","access":"cadastro","name":"Bicicletário Estação Guilhermina Esperança","operator":"Metrô","capacity":155,"covered":true,"hours":{"weekday":[["06:00","22:00"]],"saturday":[["06:00","22:00"]],"sunday":[["06:00","22:00"]]},"osm":"way/715945825"},"geometry":{"type":"Point","coordinates":[-46.51762,-23.53058]}},{"type":"Feature","properties":{"kind":"bicicletario","access":"cadastro","name":"Bicicletário Terminal Metropolitano Santo André","operator":"EMTU","capacity":334,"covered":true,"hours":{"weekday":[["06:00","22:00"]],"saturday":[["06:00","22:00"]],"sunday":[["06:00","22:00"]]},"osm":"way/733172196"},"geometry":{"type":"Point","coordinates":[-46.52907,-23.65152]}},{"type":"Feature","properties":{"kind":"bicicletario","access":"cadastro","name":"Bicicletário Terminal Cidade Tiradentes","operator":"Tembici","capacity":70,"covered":true,"hours":{"weekday":[["04:00","23:59"]],"saturday":[["04:00","23:59"]],"sunday":[["04:00","23:59"]]},"osm":"way/734028237"},"geometry":{"type":"Point","coordinates":[-46.40871,-23.58325]}},{"type":"Feature","properties":{"kind":"bicicletario","access":"cadastro","name":"Bicicletário Estação Santa Cruz","operator":"ViaMobilidade","capacity":80,"covered":true,"hours":{"weekday":[["06:00","22:00"]],"saturday":[["06:00","22:00"]],"sunday":[["06:00","22:00"]]},"osm":"way/737029358"},"geometry":{"type":"Point","coordinates":[-46.6371,-23.59786]}},{"type":"Feature","properties":{"kind":"bicicletario","access":"cadastro","name":"Bicicletário Estação Mendes","operator":"CPTM","capacity":50,"covered":true,"osm":"way/762670707"},"geometry":{"type":"Point","coordinates":[-46.70949,-23.75555]}},{"type":"Feature","properties":{"kind":"bicicletario","access":"pago","name":"Bicicletário Estação Mauá","operator":"ASCOBIKE","capacity":1968,"covered":true,"hours":"24h","osm":"way/827182391"},"geometry":{"type":"Point","coordinates":[-46.46217,-23.66749]}},{"type":"Feature","properties":{"kind":"bicicletario","access":"cadastro","operator":"SME","covered":true,"osm":"way/831335180"},"geometry":{"type":"Point","coordinates":[-46.72611,-23.82823]}},{"type":"Feature","properties":{"kind":"bicicletario","access":"cadastro","name":"Bicicletário Estação Autódromo","operator":"Via Mobilidade","capacity":261,"covered":true,"hours":{"weekday":[["04:00","23:59"]],"saturday":[["04:00","23:59"]],"sunday":[["04:00","23:59"]]},"osm":"way/831449250"},"geometry":{"type":"Point","coordinates":[-46.68825,-23.70525]}},{"type":"Feature","properties":{"kind":"bicicletario","access":"livre","covered":true,"osm":"way/856172602"},"geometry":{"type":"Point","coordinates":[-46.18386,-23.50806]}},{"type":"Feature","properties":{"kind":"paraciclo","access":"livre","capacity":100,"covered":true,"osm":"way/863997086"},"geometry":{"type":"Point","coordinates":[-46.70272,-23.62236]}},{"type":"Feature","properties":{"kind":"bicicletario","access":"pago","covered":true,"osm":"way/897358193"},"geometry":{"type":"Point","coordinates":[-46.53349,-23.64616]}},{"type":"Feature","properties":{"kind":"paraciclo","access":"livre","operator":"ViaQuatro","capacity":250,"covered":true,"osm":"way/942593085"},"geometry":{"type":"Point","coordinates":[-46.7367,-23.59006]}},{"type":"Feature","properties":{"kind":"bicicletario","access":"cadastro","name":"Bicicletário Terminal São Miguel","operator":"Socicam","capacity":64,"covered":true,"osm":"way/954400389"},"geometry":{"type":"Point","coordinates":[-46.43381,-23.49195]}},{"type":"Feature","properties":{"kind":"bicicletario","access":"cadastro","name":"Bicicletário Estação Comendador Ermelino","operator":"CPTM","capacity":196,"covered":true,"hours":{"weekday":[["04:00","23:59"]],"saturday":[["04:00","23:59"]],"sunday":[["04:00","23:59"]]},"osm":"way/979341205"},"geometry":{"type":"Point","coordinates":[-46.48111,-23.48508]}},{"type":"Feature","properties":{"kind":"bicicletario","access":"cadastro","name":"Bicicletário Estação São Miguel Paulista","operator":"CPTM","capacity":208,"covered":true,"hours":{"weekday":[["04:00","23:59"]],"saturday":[["04:00","23:59"]],"sunday":[["04:00","23:59"]]},"osm":"way/979341206"},"geometry":{"type":"Point","coordinates":[-46.44392,-23.49029]}},{"type":"Feature","properties":{"kind":"bicicletario","access":"cadastro","name":"Bicicletário Estação Jardim Helena - Vila Mara","operator":"CPTM","capacity":256,"covered":true,"hours":{"weekday":[["04:00","23:59"]],"saturday":[["04:00","23:59"]],"sunday":[["04:00","23:59"]]},"osm":"way/979341207"},"geometry":{"type":"Point","coordinates":[-46.42125,-23.49187]}},{"type":"Feature","properties":{"kind":"bicicletario","access":"cadastro","name":"Bicicletário Estação Itaim Paulista","operator":"CPTM","capacity":256,"covered":true,"hours":{"weekday":[["04:00","23:59"]],"saturday":[["04:00","23:59"]],"sunday":[["04:00","23:59"]]},"osm":"way/979341208"},"geometry":{"type":"Point","coordinates":[-46.40351,-23.49389]}},{"type":"Feature","properties":{"kind":"bicicletario","access":"cadastro","name":"Bicicletário Estação Jardim Romano","operator":"CPTM","capacity":240,"covered":true,"hours":{"weekday":[["04:00","23:59"]],"saturday":[["04:00","23:59"]],"sunday":[["04:00","23:59"]]},"osm":"way/979341209"},"geometry":{"type":"Point","coordinates":[-46.38517,-23.48493]}},{"type":"Feature","properties":{"kind":"bicicletario","access":"cadastro","name":"Bicicletário Estação Engenheiro Goulart (Norte)","operator":"CPTM","capacity":200,"covered":true,"hours":{"weekday":[["04:00","23:59"]],"saturday":[["04:00","23:59"]],"sunday":[["04:00","23:59"]]},"osm":"way/979348497"},"geometry":{"type":"Point","coordinates":[-46.52027,-23.49704]}},{"type":"Feature","properties":{"kind":"bicicletario","access":"cadastro","name":"Bicicletário Estação Engenheiro Goulart (Sul)","operator":"CPTM","capacity":74,"covered":true,"hours":{"weekday":[["04:00","23:59"]],"saturday":[["04:00","23:59"]],"sunday":[["04:00","23:59"]]},"osm":"way/979348498"},"geometry":{"type":"Point","coordinates":[-46.52023,-23.49891]}},{"type":"Feature","properties":{"kind":"bicicletario","access":"cadastro","name":"Bicicletário Estação Guarulhos CECAP","operator":"CPTM","capacity":192,"covered":true,"hours":{"weekday":[["04:00","23:59"]],"saturday":[["04:00","23:59"]],"sunday":[["04:00","23:59"]]},"osm":"way/979348499"},"geometry":{"type":"Point","coordinates":[-46.49555,-23.44828]}},{"type":"Feature","properties":{"kind":"bicicletario","access":"cadastro","name":"Bicicletário Estação Aeroporto Guarulhos","operator":"CPTM","capacity":100,"covered":true,"hours":{"weekday":[["04:00","23:59"]],"saturday":[["04:00","23:59"]],"sunday":[["04:00","23:59"]]},"osm":"way/979348500"},"geometry":{"type":"Point","coordinates":[-46.49502,-23.43275]}},{"type":"Feature","properties":{"kind":"bicicletario","access":"cadastro","name":"Bicicletário Estação Ferraz de Vasconcelos","operator":"CPTM","capacity":136,"covered":true,"hours":{"weekday":[["04:00","23:59"]],"saturday":[["04:00","23:59"]],"sunday":[["04:00","23:59"]]},"osm":"way/979348501"},"geometry":{"type":"Point","coordinates":[-46.36786,-23.54065]}},{"type":"Feature","properties":{"kind":"bicicletario","access":"cadastro","name":"Bicicletário Estação Poá","operator":"CPTM","capacity":60,"covered":true,"hours":{"weekday":[["04:00","23:59"]],"saturday":[["04:00","23:59"]],"sunday":[["04:00","23:59"]]},"osm":"way/979348502"},"geometry":{"type":"Point","coordinates":[-46.34383,-23.52522]}},{"type":"Feature","properties":{"kind":"bicicletario","access":"cadastro","name":"Bicicletário Estação Calmon Viana","operator":"CPTM","capacity":84,"covered":true,"hours":{"weekday":[["04:00","23:59"]],"saturday":[["04:00","23:59"]],"sunday":[["04:00","23:59"]]},"osm":"way/979348503"},"geometry":{"type":"Point","coordinates":[-46.33235,-23.52577]}},{"type":"Feature","properties":{"kind":"bicicletario","access":"cadastro","name":"Bicicletário Estação Tamanduateí","operator":"CPTM","capacity":164,"covered":true,"hours":{"weekday":[["04:00","23:59"]],"saturday":[["04:00","23:59"]],"sunday":[["04:00","23:59"]]},"osm":"way/979352626"},"geometry":{"type":"Point","coordinates":[-46.58888,-23.59226]}},{"type":"Feature","properties":{"kind":"bicicletario","access":"cadastro","name":"Bicicletário Estação Jurubatuba","operator":"CPTM","capacity":262,"covered":true,"hours":{"weekday":[["04:00","23:59"]],"saturday":[["04:00","23:59"]],"sunday":[["04:00","23:59"]]},"osm":"way/979352627"},"geometry":{"type":"Point","coordinates":[-46.7016,-23.67796]}},{"type":"Feature","properties":{"kind":"bicicletario","access":"cadastro","name":"Bicicletário Estação Vila Olímpia","operator":"CPTM","capacity":94,"covered":true,"hours":{"weekday":[["04:00","23:59"]],"saturday":[["04:00","23:59"]],"sunday":[["04:00","23:59"]]},"osm":"way/979355386"},"geometry":{"type":"Point","coordinates":[-46.69203,-23.59368]}},{"type":"Feature","properties":{"kind":"bicicletario","access":"cadastro","name":"Bicicletário Estação Cidade Universitária","operator":"CPTM","capacity":60,"covered":true,"hours":{"weekday":[["04:00","23:59"]],"saturday":[["04:00","23:59"]],"sunday":[["04:00","23:59"]]},"osm":"way/979355387"},"geometry":{"type":"Point","coordinates":[-46.71167,-23.55703]}},{"type":"Feature","properties":{"kind":"bicicletario","access":"cadastro","name":"Bicicletário Estação Villa Lobos - Jaguaré","operator":"CPTM","capacity":233,"covered":true,"hours":{"weekday":[["04:00","23:59"]],"saturday":[["04:00","23:59"]],"sunday":[["04:00","23:59"]]},"osm":"way/979355388"},"geometry":{"type":"Point","coordinates":[-46.73248,-23.54584]}},{"type":"Feature","properties":{"kind":"bicicletario","access":"cadastro","name":"Bicicletário Estação Ceasa","operator":"CPTM","capacity":144,"covered":true,"hours":{"weekday":[["04:00","23:59"]],"saturday":[["04:00","23:59"]],"sunday":[["04:00","23:59"]]},"osm":"way/979417384"},"geometry":{"type":"Point","coordinates":[-46.7428,-23.53671]}},{"type":"Feature","properties":{"kind":"bicicletario","access":"cadastro","name":"Bicicletário Estação Osasco","operator":"CPTM","capacity":166,"covered":true,"hours":{"weekday":[["04:00","23:59"]],"saturday":[["04:00","23:59"]],"sunday":[["04:00","23:59"]]},"osm":"way/979417385"},"geometry":{"type":"Point","coordinates":[-46.77588,-23.52832]}},{"type":"Feature","properties":{"kind":"bicicletario","access":"cadastro","name":"Bicicletário Estação Carapicuíba","operator":"CPTM","capacity":145,"covered":true,"hours":{"weekday":[["04:00","23:59"]],"saturday":[["04:00","23:59"]],"sunday":[["04:00","23:59"]]},"osm":"way/979417386"},"geometry":{"type":"Point","coordinates":[-46.83542,-23.51889]}},{"type":"Feature","properties":{"kind":"bicicletario","access":"cadastro","name":"Bicicletário Estação Jardim Belval","operator":"CPTM","capacity":117,"covered":true,"hours":{"weekday":[["04:00","23:59"]],"saturday":[["04:00","23:59"]],"sunday":[["04:00","23:59"]]},"osm":"way/979417387"},"geometry":{"type":"Point","coordinates":[-46.88912,-23.51373]}},{"type":"Feature","properties":{"kind":"bicicletario","access":"cadastro","name":"Bicicletário Estação Jardim Silveira","operator":"CPTM","capacity":279,"covered":true,"hours":{"weekday":[["04:00","23:59"]],"saturday":[["04:00","23:59"]],"sunday":[["04:00","23:59"]]},"osm":"way/979420369"},"geometry":{"type":"Point","coordinates":[-46.89365,-23.52422]}},{"type":"Feature","properties":{"kind":"bicicletario","access":"cadastro","name":"Bicicletário Estação Jandira","operator":"CPTM","capacity":279,"covered":true,"hours":{"weekday":[["04:00","23:59"]],"saturday":[["04:00","23:59"]],"sunday":[["04:00","23:59"]],"holiday":[["04:00","23:59"]]},"osm":"way/979420370"},"geometry":{"type":"Point","coordinates":[-46.90171,-23.52753]}},{"type":"Feature","properties":{"kind":"bicicletario","access":"cadastro","name":"Bicicletário Estação Engenheiro Cardoso","operator":"CPTM","capacity":160,"covered":true,"hours":{"weekday":[["04:00","23:59"]],"saturday":[["04:00","23:59"]],"sunday":[["04:00","23:59"]]},"osm":"way/979420371"},"geometry":{"type":"Point","coordinates":[-46.92838,-23.53501]}},{"type":"Feature","properties":{"kind":"bicicletario","access":"cadastro","name":"Bicicletário Estação Itapevi","operator":"CPTM","capacity":480,"covered":true,"hours":{"weekday":[["04:00","23:59"]],"saturday":[["04:00","23:59"]],"sunday":[["04:00","23:59"]]},"osm":"way/979420372"},"geometry":{"type":"Point","coordinates":[-46.93504,-23.5449]}},{"type":"Feature","properties":{"kind":"bicicletario","access":"cadastro","name":"Bicicletário Estação Vila Aurora","operator":"CPTM","capacity":144,"covered":true,"hours":{"weekday":[["04:00","23:59"]],"saturday":[["04:00","23:59"]],"sunday":[["04:00","23:59"]]},"osm":"way/979421702"},"geometry":{"type":"Point","coordinates":[-46.74785,-23.43857]}},{"type":"Feature","properties":{"kind":"bicicletario","access":"cadastro","name":"Bicicletário Estação Caieiras","operator":"CPTM","capacity":67,"covered":true,"hours":{"weekday":[["04:00","23:59"]],"saturday":[["04:00","23:59"]],"sunday":[["04:00","23:59"]]},"osm":"way/979421703"},"geometry":{"type":"Point","coordinates":[-46.75131,-23.36606]}},{"type":"Feature","properties":{"kind":"bicicletario","access":"cadastro","name":"Bicicletário Terminal Metropolitano São Bernardo do Campo","operator":"EMTU","capacity":68,"covered":true,"hours":{"weekday":[["06:00","22:00"]],"saturday":[["06:00","22:00"]],"sunday":[["06:00","22:00"]]},"osm":"way/979423306"},"geometry":{"type":"Point","coordinates":[-46.55242,-23.69786]}},{"type":"Feature","properties":{"kind":"bicicletario","access":"cadastro","name":"Bicicletário Estação/Terminal Jabaquara","operator":"EMTU","capacity":68,"covered":true,"hours":{"weekday":[["06:00","22:00"]],"saturday":[["06:00","22:00"]],"sunday":[["06:00","22:00"]]},"osm":"way/979423307"},"geometry":{"type":"Point","coordinates":[-46.64019,-23.64669]}},{"type":"Feature","properties":{"kind":"bicicletario","access":"cadastro","name":"Bicicletário Estação/Terminal Itaquera","operator":"Metrô","capacity":55,"covered":true,"hours":{"weekday":[["06:00","22:00"]],"saturday":[["06:00","22:00"]],"sunday":[["06:00","22:00"]]},"osm":"way/979425620"},"geometry":{"type":"Point","coordinates":[-46.47196,-23.54257]}},{"type":"Feature","properties":{"kind":"bicicletario","access":"cadastro","name":"Bicicletário Estação Carrão","operator":"Metrô","capacity":110,"covered":true,"hours":{"weekday":[["06:00","22:00"]],"saturday":[["06:00","22:00"]],"sunday":[["06:00","22:00"]]},"osm":"way/979425621"},"geometry":{"type":"Point","coordinates":[-46.56485,-23.5389]}},{"type":"Feature","properties":{"kind":"bicicletario","access":"cadastro","name":"Bicicletário Estação Sé","operator":"Metrô","capacity":20,"covered":true,"hours":{"weekday":[["06:00","22:00"]],"saturday":[["06:00","22:00"]],"sunday":[["06:00","22:00"]]},"osm":"way/979425622"},"geometry":{"type":"Point","coordinates":[-46.63369,-23.55092]}},{"type":"Feature","properties":{"kind":"bicicletario","access":"cadastro","name":"Bicicletário Largo da Batata (Estação Faria Lima)","operator":"Tembici","capacity":100,"covered":true,"hours":"24h","osm":"way/979425623"},"geometry":{"type":"Point","coordinates":[-46.6944,-23.56737]}},{"type":"Feature","properties":{"kind":"bicicletario","access":"cadastro","name":"Bicicletário Estação Pinheiros","operator":"ViaQuatro","capacity":117,"covered":true,"hours":{"weekday":[["04:40","24:00"]],"saturday":[["04:40","24:00"]],"sunday":[["04:40","24:00"]]},"osm":"way/987778700"},"geometry":{"type":"Point","coordinates":[-46.70143,-23.56743]}},{"type":"Feature","properties":{"kind":"bicicletario","access":"cadastro","name":"Bicicletário Estação Morumbi","operator":"ViaQuatro","capacity":80,"covered":true,"hours":{"weekday":[["06:00","22:00"]],"saturday":[["06:00","22:00"]],"sunday":[["06:00","22:00"]]},"osm":"way/987780989"},"geometry":{"type":"Point","coordinates":[-46.72355,-23.58594]}},{"type":"Feature","properties":{"kind":"bicicletario","access":"cadastro","name":"Bicicletário Estação Hospital São Paulo","operator":"ViaMobilidade","capacity":30,"covered":true,"hours":{"weekday":[["06:00","22:00"]],"saturday":[["06:00","22:00"]],"sunday":[["06:00","22:00"]]},"osm":"way/987788235"},"geometry":{"type":"Point","coordinates":[-46.64573,-23.59877]}},{"type":"Feature","properties":{"kind":"bicicletario","access":"cadastro","name":"Bicicletário Estação AACD Servidor","operator":"ViaMobilidade","capacity":36,"covered":true,"hours":{"weekday":[["06:00","22:00"]],"saturday":[["06:00","22:00"]],"sunday":[["06:00","22:00"]]},"osm":"way/987788236"},"geometry":{"type":"Point","coordinates":[-46.65198,-23.59798]}},{"type":"Feature","properties":{"kind":"bicicletario","access":"cadastro","name":"Bicicletário Estação Moema","operator":"ViaMobilidade","capacity":68,"covered":true,"hours":{"weekday":[["06:00","22:00"]],"saturday":[["06:00","22:00"]],"sunday":[["06:00","22:00"]]},"osm":"way/987789310"},"geometry":{"type":"Point","coordinates":[-46.66184,-23.6039]}},{"type":"Feature","properties":{"kind":"bicicletario","access":"cadastro","name":"Bicicletário Estação Eucaliptos","operator":"ViaMobilidade","capacity":92,"covered":true,"hours":{"weekday":[["06:00","22:00"]],"saturday":[["06:00","22:00"]],"sunday":[["06:00","22:00"]]},"osm":"way/987789786"},"geometry":{"type":"Point","coordinates":[-46.66854,-23.60934]}},{"type":"Feature","properties":{"kind":"bicicletario","access":"cadastro","name":"Bicicletário Estação Brooklin","operator":"ViaMobilidade","capacity":30,"covered":true,"hours":{"weekday":[["06:00","22:00"]],"saturday":[["06:00","22:00"]],"sunday":[["06:00","22:00"]]},"osm":"way/987790372"},"geometry":{"type":"Point","coordinates":[-46.68865,-23.6271]}},{"type":"Feature","properties":{"kind":"bicicletario","access":"cadastro","name":"Bicicletário Estação Borba Gato","operator":"ViaMobilidade","capacity":84,"covered":true,"hours":{"weekday":[["06:00","22:00"]],"saturday":[["06:00","22:00"]],"sunday":[["06:00","22:00"]]},"osm":"way/987791152"},"geometry":{"type":"Point","coordinates":[-46.69302,-23.63361]}},{"type":"Feature","properties":{"kind":"bicicletario","access":"cadastro","name":"Bicicletário Estação Alto da Boa Vista","operator":"ViaMobilidade","capacity":126,"covered":true,"hours":{"weekday":[["06:00","22:00"]],"saturday":[["06:00","22:00"]],"sunday":[["06:00","22:00"]]},"osm":"way/987792505"},"geometry":{"type":"Point","coordinates":[-46.6993,-23.641]}},{"type":"Feature","properties":{"kind":"bicicletario","access":"cadastro","name":"Bicicletário Terminal Parelheiros","operator":"Socicam","capacity":15,"covered":true,"hours":"24h","osm":"way/987795585"},"geometry":{"type":"Point","coordinates":[-46.72684,-23.82828]}},{"type":"Feature","properties":{"kind":"bicicletario","access":"cadastro","name":"Bicicletário Terminal Grajaú","operator":"Socicam","capacity":50,"covered":true,"osm":"way/990560668"},"geometry":{"type":"Point","coordinates":[-46.69631,-23.73623]}},{"type":"Feature","properties":{"kind":"bicicletario","access":"cadastro","name":"Bicicletário Terminal Jardim Ângela","operator":"Socicam","capacity":12,"covered":true,"osm":"way/990567286"},"geometry":{"type":"Point","coordinates":[-46.77456,-23.69101]}},{"type":"Feature","properties":{"kind":"bicicletario","access":"cadastro","name":"Bicicletário Terminal Capelinha","operator":"Socicam","capacity":106,"covered":true,"osm":"way/990569747"},"geometry":{"type":"Point","coordinates":[-46.76134,-23.65507]}},{"type":"Feature","properties":{"kind":"bicicletario","access":"cadastro","name":"Bicicletário Terminal João Dias","operator":"Socicam","capacity":72,"covered":true,"osm":"way/990570215"},"geometry":{"type":"Point","coordinates":[-46.73308,-23.64389]}},{"type":"Feature","properties":{"kind":"bicicletario","access":"cadastro","name":"Bicicletário Terminal Santo Amaro","operator":"Socicam","capacity":10,"covered":true,"osm":"way/990572210"},"geometry":{"type":"Point","coordinates":[-46.71124,-23.65455]}},{"type":"Feature","properties":{"kind":"bicicletario","access":"cadastro","name":"Bicicletário Terminal Jardim Britânia","operator":"Socicam","capacity":12,"covered":true,"osm":"way/990575308"},"geometry":{"type":"Point","coordinates":[-46.78697,-23.43243]}},{"type":"Feature","properties":{"kind":"bicicletario","access":"cadastro","name":"Bicicletário Terminal Lapa","operator":"Socicam","capacity":74,"covered":true,"osm":"way/990575808"},"geometry":{"type":"Point","coordinates":[-46.70032,-23.52032]}},{"type":"Feature","properties":{"kind":"bicicletario","access":"cadastro","name":"Bicicletário Terminal Vila Nova Cachoeirinha","operator":"Socicam","capacity":24,"covered":true,"osm":"way/990576808"},"geometry":{"type":"Point","coordinates":[-46.66896,-23.47464]}},{"type":"Feature","properties":{"kind":"bicicletario","access":"cadastro","name":"Bicicletário Terminal Casa Verde","operator":"Socicam","capacity":7,"covered":true,"osm":"way/990576956"},"geometry":{"type":"Point","coordinates":[-46.66259,-23.49605]}},{"type":"Feature","properties":{"kind":"bicicletario","access":"cadastro","name":"Bicicletário Terminal Vila Carrão","operator":"Socicam","capacity":38,"covered":true,"osm":"way/990579625"},"geometry":{"type":"Point","coordinates":[-46.52269,-23.5582]}},{"type":"Feature","properties":{"kind":"bicicletario","access":"cadastro","name":"Bicicletário Terminal Penha","operator":"Socicam","capacity":28,"covered":true,"osm":"way/990580079"},"geometry":{"type":"Point","coordinates":[-46.54691,-23.51929]}},{"type":"Feature","properties":{"kind":"bicicletario","access":"cadastro","name":"Bicicletário Terminal Aricanduva","operator":"Socicam","capacity":54,"covered":true,"osm":"way/990580921"},"geometry":{"type":"Point","coordinates":[-46.55482,-23.52793]}},{"type":"Feature","properties":{"kind":"bicicletario","access":"cadastro","name":"Bicicletário Terminal Amaral Gurgel","operator":"Socicam","capacity":41,"covered":true,"osm":"way/990582141"},"geometry":{"type":"Point","coordinates":[-46.64858,-23.53874]}},{"type":"Feature","properties":{"kind":"bicicletario","access":"cadastro","name":"Bicicletário Terminal Princesa Isabel","operator":"Socicam","capacity":66,"covered":true,"osm":"way/990583721"},"geometry":{"type":"Point","coordinates":[-46.64498,-23.53412]}},{"type":"Feature","properties":{"kind":"bicicletario","access":"cadastro","name":"Bicicletário Terminal Bandeira","operator":"Socicam","capacity":22,"covered":true,"osm":"way/990584152"},"geometry":{"type":"Point","coordinates":[-46.64031,-23.54927]}},{"type":"Feature","properties":{"kind":"bicicletario","access":"cadastro","name":"Bicicletário Terminal Parque Dom Pedro II","operator":"Socicam","capacity":156,"covered":true,"osm":"way/990586140"},"geometry":{"type":"Point","coordinates":[-46.62992,-23.54802]}},{"type":"Feature","properties":{"kind":"bicicletario","access":"cadastro","name":"Bicicletário Terminal Mercado","operator":"Socicam","capacity":58,"covered":true,"osm":"way/990586141"},"geometry":{"type":"Point","coordinates":[-46.63004,-23.54593]}},{"type":"Feature","properties":{"kind":"bicicletario","access":"cadastro","name":"Bicicletário Estação Pedro II (Oeste)","operator":"Socicam","capacity":40,"covered":true,"osm":"way/990852848"},"geometry":{"type":"Point","coordinates":[-46.62754,-23.54995]}},{"type":"Feature","properties":{"kind":"bicicletario","access":"cadastro","name":"Bicicletário Estação Pedro II (Leste)","operator":"Socicam","capacity":50,"osm":"way/990852849"},"geometry":{"type":"Point","coordinates":[-46.62641,-23.54994]}},{"type":"Feature","properties":{"kind":"bicicletario","access":"cadastro","name":"Bicicletário Estação Ana Neri (Oeste)","operator":"Socicam","capacity":48,"osm":"way/990854526"},"geometry":{"type":"Point","coordinates":[-46.6151,-23.55911]}},{"type":"Feature","properties":{"kind":"bicicletario","access":"cadastro","name":"Bicicletário Estação Ana Neri (Leste)","operator":"Socicam","capacity":42,"osm":"way/990854527"},"geometry":{"type":"Point","coordinates":[-46.61502,-23.55839]}},{"type":"Feature","properties":{"kind":"bicicletario","access":"cadastro","name":"Bicicletário Estação Alberto Lion (Leste)","operator":"Socicam","capacity":16,"osm":"way/990855224"},"geometry":{"type":"Point","coordinates":[-46.61066,-23.56414]}},{"type":"Feature","properties":{"kind":"bicicletario","access":"cadastro","name":"Bicicletário Estação Alberto Lion (Oeste)","operator":"Socicam","capacity":14,"osm":"way/990855225"},"geometry":{"type":"Point","coordinates":[-46.61202,-23.56449]}},{"type":"Feature","properties":{"kind":"bicicletario","access":"cadastro","name":"Bicicletário Estação CA Ypiranga","operator":"Socicam","capacity":42,"osm":"way/990856175"},"geometry":{"type":"Point","coordinates":[-46.60263,-23.57422]}},{"type":"Feature","properties":{"kind":"bicicletario","access":"cadastro","name":"Bicicletário Estação NS Aparecida (Oeste)","operator":"Socicam","capacity":24,"osm":"way/990872255"},"geometry":{"type":"Point","coordinates":[-46.59807,-23.59136]}},{"type":"Feature","properties":{"kind":"bicicletario","access":"cadastro","name":"Bicicletário Estação NS Aparecida (Leste)","operator":"Socicam","capacity":22,"osm":"way/990872256"},"geometry":{"type":"Point","coordinates":[-46.59755,-23.59129]}},{"type":"Feature","properties":{"kind":"bicicletario","access":"cadastro","name":"Bicicletário Estação Rua do Grito (Oeste)","operator":"Socicam","capacity":20,"osm":"way/990874655"},"geometry":{"type":"Point","coordinates":[-46.59749,-23.59824]}},{"type":"Feature","properties":{"kind":"bicicletario","access":"cadastro","name":"Bicicletário Estação Rua do Grito (Leste)","operator":"Socicam","capacity":62,"osm":"way/990874656"},"geometry":{"type":"Point","coordinates":[-46.59693,-23.59829]}},{"type":"Feature","properties":{"kind":"bicicletario","access":"cadastro","name":"Bicicletário Terminal Sacomã","operator":"Socicam","capacity":146,"covered":true,"osm":"way/990876169"},"geometry":{"type":"Point","coordinates":[-46.60331,-23.60364]}},{"type":"Feature","properties":{"kind":"bicicletario","access":"cadastro","name":"Bicicletário Terminal Vila Prudente","operator":"Socicam","capacity":32,"covered":true,"osm":"way/990877261"},"geometry":{"type":"Point","coordinates":[-46.58363,-23.58506]}},{"type":"Feature","properties":{"kind":"bicicletario","access":"cadastro","name":"Bicicletário Terminal Sapopemba","operator":"Socicam","capacity":42,"osm":"way/990878228"},"geometry":{"type":"Point","coordinates":[-46.50149,-23.61429]}},{"type":"Feature","properties":{"kind":"bicicletario","access":"cadastro","name":"Bicicletário Terminal Cecap","operator":"EMTU - GDF","capacity":130,"covered":true,"hours":{"weekday":[["06:00","22:00"]],"saturday":[["06:00","22:00"]],"sunday":[]},"osm":"way/1008865394"},"geometry":{"type":"Point","coordinates":[-46.49663,-23.46223]}},{"type":"Feature","properties":{"kind":"bicicletario","access":"livre","name":"Bicicletário Aeroporo de Guarulhos","operator":"GRU Airport","capacity":234,"covered":true,"hours":"24h","osm":"way/1093929894"},"geometry":{"type":"Point","coordinates":[-46.48471,-23.42537]}},{"type":"Feature","properties":{"kind":"bicicletario","access":"livre","name":"Bicicletário Terminal de Cargas - Aeroporto","operator":"GRU Airport","capacity":202,"covered":true,"hours":"24h","osm":"way/1093932126"},"geometry":{"type":"Point","coordinates":[-46.48739,-23.42439]}},{"type":"Feature","properties":{"kind":"paraciclo","access":"livre","name":"Paragem Espaço Cerâmica","capacity":12,"osm":"way/1163718948"},"geometry":{"type":"Point","coordinates":[-46.57974,-23.6248]}},{"type":"Feature","properties":{"kind":"paraciclo","access":"livre","capacity":10,"osm":"way/1294586591"},"geometry":{"type":"Point","coordinates":[-46.74304,-23.28261]}},{"type":"Feature","properties":{"kind":"bicicletario","access":"livre","covered":true,"osm":"way/1419632566"},"geometry":{"type":"Point","coordinates":[-46.67553,-23.49951]}},{"type":"Feature","properties":{"kind":"paraciclo","access":"livre","name":"Paraciclo Estação Jardim Colonial","operator":"Metrô","capacity":64,"source":"geosampa"},"geometry":{"type":"Point","coordinates":[-46.46891,-23.59875]}},{"type":"Feature","properties":{"kind":"paraciclo","access":"livre","name":"Paraciclo Estação Belem","operator":"Metrô","capacity":8,"source":"geosampa"},"geometry":{"type":"Point","coordinates":[-46.58973,-23.54308]}},{"type":"Feature","properties":{"kind":"paraciclo","access":"livre","name":"Paraciclo Terminal Grajau","operator":"SPTrans","capacity":4,"source":"geosampa"},"geometry":{"type":"Point","coordinates":[-46.6962,-23.73594]}},{"type":"Feature","properties":{"kind":"bicicletario","access":"cadastro","name":"Bicicletário Terminal Hidroviário Parque Mar Paulista","operator":"SPTrans","capacity":51,"covered":true,"source":"geosampa"},"geometry":{"type":"Point","coordinates":[-46.66714,-23.69737]}},{"type":"Feature","properties":{"kind":"paraciclo","access":"livre","name":"Paraciclo Estação Matilde","operator":"Metrô","capacity":8,"source":"geosampa"},"geometry":{"type":"Point","coordinates":[-46.53059,-23.53176]}},{"type":"Feature","properties":{"kind":"paraciclo","access":"livre","name":"Paraciclo Terminal João Dias","operator":"SPTrans","capacity":4,"source":"geosampa"},"geometry":{"type":"Point","coordinates":[-46.73374,-23.64382]}},{"type":"Feature","properties":{"kind":"paraciclo","access":"livre","name":"Paraciclo Estação Vila Tolstoi","operator":"Metrô","capacity":64,"source":"geosampa"},"geometry":{"type":"Point","coordinates":[-46.52714,-23.60082]}},{"type":"Feature","properties":{"kind":"paraciclo","access":"livre","name":"Paraciclo Estação Capao Redondo","operator":"ViaMobilidade","capacity":16,"source":"geosampa"},"geometry":{"type":"Point","coordinates":[-46.76826,-23.65958]}},{"type":"Feature","properties":{"kind":"paraciclo","access":"livre","name":"Paraciclo Estação São Mateus","operator":"Metrô","capacity":64,"source":"geosampa"},"geometry":{"type":"Point","coordinates":[-46.47728,-23.61221]}},{"type":"Feature","properties":{"kind":"paraciclo","access":"livre","name":"Paraciclo Estação Tucuruvi","operator":"Metrô","capacity":8,"source":"geosampa"},"geometry":{"type":"Point","coordinates":[-46.60347,-23.48014]}},{"type":"Feature","properties":{"kind":"bicicletario","access":"cadastro","name":"Bicicletário Terminal Guarapiranga","operator":"SPTrans","capacity":62,"covered":true,"source":"geosampa"},"geometry":{"type":"Point","coordinates":[-46.73557,-23.66906]}},{"type":"Feature","properties":{"kind":"paraciclo","access":"livre","name":"Paraciclo Terminal Campo Limpo","operator":"SPTrans","capacity":2,"source":"geosampa"},"geometry":{"type":"Point","coordinates":[-46.77198,-23.63169]}},{"type":"Feature","properties":{"kind":"paraciclo","access":"livre","name":"Paraciclo Terminal Santo Amaro","operator":"SPTrans","capacity":8,"source":"geosampa"},"geometry":{"type":"Point","coordinates":[-46.71155,-23.65428]}},{"type":"Feature","properties":{"kind":"paraciclo","access":"livre","name":"Paraciclo Estação Parada Inglesa","operator":"Metrô","capacity":8,"source":"geosampa"},"geometry":{"type":"Point","coordinates":[-46.60891,-23.48715]}},{"type":"Feature","properties":{"kind":"paraciclo","access":"livre","name":"Paraciclo Estação Jd São Paulo - Ayrton Senna","operator":"Metrô","capacity":16,"source":"geosampa"},"geometry":{"type":"Point","coordinates":[-46.61676,-23.49254]}},{"type":"Feature","properties":{"kind":"paraciclo","access":"livre","name":"Paraciclo Estação Palmeiras - Barra Funda","operator":"Metrô","capacity":4,"source":"geosampa"},"geometry":{"type":"Point","coordinates":[-46.66718,-23.52563]}},{"type":"Feature","properties":{"kind":"paraciclo","access":"livre","name":"Paraciclo Terminal Guarapiranga","operator":"ViaMobilidade","capacity":4,"source":"geosampa"},"geometry":{"type":"Point","coordinates":[-46.73543,-23.66916]}},{"type":"Feature","properties":{"kind":"paraciclo","access":"livre","name":"Paraciclo Estação Oratorio","operator":"Metrô","capacity":40,"source":"geosampa"},"geometry":{"type":"Point","coordinates":[-46.56167,-23.58223]}},{"type":"Feature","properties":{"kind":"paraciclo","access":"livre","name":"Paraciclo Estação Sapopemba","operator":"Metrô","capacity":64,"source":"geosampa"},"geometry":{"type":"Point","coordinates":[-46.50094,-23.61463]}},{"type":"Feature","properties":{"kind":"paraciclo","access":"livre","name":"Paraciclo Estação Campo Limpo","operator":"ViaMobilidade","capacity":16,"source":"geosampa"},"geometry":{"type":"Point","coordinates":[-46.75882,-23.64946]}},{"type":"Feature","properties":{"kind":"paraciclo","access":"livre","name":"Paraciclo Terminal Parelheiros","operator":"SPTrans","capacity":4,"source":"geosampa"},"geometry":{"type":"Point","coordinates":[-46.72711,-23.82818]}},{"type":"Feature","properties":{"kind":"paraciclo","access":"livre","name":"Paraciclo Terminal Varginha","operator":"SPTrans","capacity":4,"source":"geosampa"},"geometry":{"type":"Point","coordinates":[-46.71677,-23.76716]}},{"type":"Feature","properties":{"kind":"paraciclo","access":"livre","name":"Paraciclo Estação Corinthians - Itaquera","operator":"Metrô","capacity":56,"source":"geosampa"},"geometry":{"type":"Point","coordinates":[-46.47071,-23.5427]}},{"type":"Feature","properties":{"kind":"paraciclo","access":"livre","name":"Paraciclo Estação Fazenda da Juta","operator":"Metrô","capacity":64,"source":"geosampa"},"geometry":{"type":"Point","coordinates":[-46.4875,-23.61171]}},{"type":"Feature","properties":{"kind":"paraciclo","access":"livre","name":"Paraciclo Estação Penha","operator":"Metrô","capacity":8,"source":"geosampa"},"geometry":{"type":"Point","coordinates":[-46.54264,-23.53326]}},{"type":"Feature","properties":{"kind":"paraciclo","access":"livre","name":"Paraciclo Estação Japao - Liberdade","operator":"Metrô","capacity":8,"source":"geosampa"},"geometry":{"type":"Point","coordinates":[-46.63554,-23.55504]}},{"type":"Feature","properties":{"kind":"paraciclo","access":"livre","name":"Paraciclo Estação Capao Vila das Belezas","operator":"ViaMobilidade","capacity":16,"source":"geosampa"},"geometry":{"type":"Point","coordinates":[-46.74576,-23.64023]}},{"type":"Feature","properties":{"kind":"paraciclo","access":"livre","name":"Paraciclo Estação Artur Alvim","operator":"Metrô","capacity":8,"source":"geosampa"},"geometry":{"type":"Point","coordinates":[-46.48415,-23.5406]}},{"type":"Feature","properties":{"kind":"paraciclo","access":"livre","name":"Paraciclo Estação Carrao","operator":"Metrô","capacity":40,"source":"geosampa"},"geometry":{"type":"Point","coordinates":[-46.56497,-23.53788]}},{"type":"Feature","properties":{"kind":"paraciclo","access":"livre","name":"Paraciclo Terminal Jardim Angela","operator":"SPTrans","capacity":4,"source":"geosampa"},"geometry":{"type":"Point","coordinates":[-46.7741,-23.69064]}},{"type":"Feature","properties":{"kind":"paraciclo","access":"livre","name":"Paraciclo Estação Camilo Haddad","operator":"Metrô","capacity":64,"source":"geosampa"},"geometry":{"type":"Point","coordinates":[-46.53757,-23.59551]}},{"type":"Feature","properties":{"kind":"paraciclo","access":"livre","name":"Paraciclo Estação Guilhermina Esperança","operator":"Metrô","capacity":155,"source":"geosampa"},"geometry":{"type":"Point","coordinates":[-46.51639,-23.52897]}},{"type":"Feature","properties":{"kind":"bicicletario","access":"cadastro","name":"Bicicletário Estação de Transferência Itaquera","operator":"SPTrans","capacity":20,"covered":true,"source":"geosampa"},"geometry":{"type":"Point","coordinates":[-46.45344,-23.5348]}},{"type":"Feature","properties":{"kind":"paraciclo","access":"livre","name":"Paraciclo Estação Santa Cruz","operator":"Metrô","capacity":8,"source":"geosampa"},"geometry":{"type":"Point","coordinates":[-46.6368,-23.59862]}},{"type":"Feature","properties":{"kind":"paraciclo","access":"livre","name":"Paraciclo Terminal Pirituba","operator":"SPTrans","capacity":2,"source":"geosampa"},"geometry":{"type":"Point","coordinates":[-46.7263,-23.48659]}},{"type":"Feature","properties":{"kind":"paraciclo","access":"livre","name":"Paraciclo Estação Santa Cecília","operator":"Metrô","capacity":8,"source":"geosampa"},"geometry":{"type":"Point","coordinates":[-46.64949,-23.53912]}},{"type":"Feature","properties":{"kind":"paraciclo","access":"livre","name":"Paraciclo Estação Tatuape","operator":"Metrô","capacity":8,"source":"geosampa"},"geometry":{"type":"Point","coordinates":[-46.57626,-23.54037]}},{"type":"Feature","properties":{"kind":"bicicletario","access":"cadastro","name":"Bicicletário Estação Usp Leste","operator":"CPTM","capacity":270,"covered":true,"source":"geosampa"},"geometry":{"type":"Point","coordinates":[-46.50078,-23.48502]}},{"type":"Feature","properties":{"kind":"paraciclo","access":"livre","name":"Paraciclo Estação São Lucas","operator":"Metrô","capacity":64,"source":"geosampa"},"geometry":{"type":"Point","coordinates":[-46.54461,-23.58895]}},{"type":"Feature","properties":{"kind":"paraciclo","access":"livre","name":"Paraciclo Estação Vila Uniao","operator":"Metrô","capacity":64,"source":"geosampa"},"geometry":{"type":"Point","coordinates":[-46.5156,-23.60291]}},{"type":"Feature","properties":{"kind":"paraciclo","access":"livre","name":"Paraciclo Terminal Capelinha","operator":"SPTrans","capacity":4,"source":"geosampa"},"geometry":{"type":"Point","coordinates":[-46.76173,-23.65465]}},{"type":"Feature","properties":{"kind":"bicicletario","access":"cadastro","name":"Bicicletário Terminal Hidroviário Parque Linear Cantinho do Ceu","operator":"SPTrans","capacity":51,"covered":true,"source":"geosampa"},"geometry":{"type":"Point","coordinates":[-46.65677,-23.73957]}},{"type":"Feature","properties":{"kind":"paraciclo","access":"livre","name":"Paraciclo Estação Jardim Planalto","operator":"Metrô","capacity":64,"source":"geosampa"},"geometry":{"type":"Point","coordinates":[-46.50773,-23.60634]}},{"type":"Feature","properties":{"kind":"paraciclo","access":"livre","name":"Paraciclo Estação Bras","operator":"Metrô","capacity":8,"source":"geosampa"},"geometry":{"type":"Point","coordinates":[-46.61558,-23.54748]}},{"type":"Feature","properties":{"kind":"paraciclo","access":"livre","name":"Paraciclo Termial São Mateus","operator":"EMTU","capacity":16,"source":"geosampa"},"geometry":{"type":"Point","coordinates":[-46.47632,-23.61355]}}]}