{"type":"FeatureCollection","features":[{"type":"Feature","properties":{"code":"3459-10","sentido":1,"headsign":"Term. Pq. D. Pedro Ii","name":"Itaim Paulista - Term. Pq. D. Pedro Ii"},"geometry":{"type":"LineString","coordinates":[[-46.38554,-23.51654],[-46.38598,-23.51638],[-46.38228,-23.51294],[-46.38288,-23.51228],[-46.38387,-23.51155],[-46.38417,-23.51137],[-46.38571,-23.51002],[-46.38592,-23.50968],[-46.38701,-23.50814],[-46.38835,-23.50643],[-46.38881,-23.50587],[-46.38995,-23.50468],[-46.39093,-23.50273],[-46.39146,-23.50157],[-46.39162,-23.50149],[-46.39335,-23.50009],[-46.39777,-23.50182],[-46.39807,-23.5014],[-46.40049,-23.50145],[-46.4005,-23.50038],[-46.40045,-23.50017],[-46.40048,-23.49949],[-46.40046,-23.49934],[-46.40036,-23.49909],[-46.40007,-23.49889],[-46.39993,-23.49871],[-46.40048,-23.49782],[-46.40097,-23.49752],[-46.4006,-23.49723],[-46.40048,-23.497],[-46.40328,-23.49578],[-46.40524,-23.49497],[-46.40601,-23.49479],[-46.40894,-23.49493],[-46.40995,-23.49503],[-46.41072,-23.49502],[-46.41371,-23.49468],[-46.41621,-23.49403],[-46.41667,-23.49393],[-46.41735,-23.49388],[-46.42054,-23.4941],[-46.4272,-23.4947],[-46.42783,-23.49485],[-46.42892,-23.49522],[-46.4295,-23.49537],[-46.43713,-23.49504],[-46.43743,-23.495],[-46.43776,-23.49488],[-46.43959,-23.49393],[-46.44012,-23.4937],[-46.44141,-23.49339],[-46.44334,-23.49287],[-46.44437,-23.49175],[-46.44444,-23.49178],[-46.44511,-23.49106],[-46.44531,-23.49094],[-46.44549,-23.49096],[-46.44564,-23.49102],[-46.44639,-23.49146],[-46.44623,-23.49149],[-46.44538,-23.49239],[-46.44479,-23.49198],[-46.44208,-23.49629],[-46.44273,-23.50253],[-46.44376,-23.51339],[-46.45178,-23.51401],[-46.45515,-23.51524],[-46.45536,-23.51527],[-46.4633,-23.51532],[-46.46778,-23.51603],[-46.46798,-23.5161],[-46.46951,-23.51859],[-46.47005,-23.51906],[-46.47074,-23.51932],[-46.4711,-23.51939],[-46.47248,-23.51913],[-46.474,-23.51898],[-46.47427,-23.51889],[-46.47437,-23.51883],[-46.47444,-23.51874],[-46.47523,-23.5174],[-46.47548,-23.5171],[-46.47633,-23.51667],[-46.47714,-23.51654],[-46.47796,-23.51651],[-46.47817,-23.51654],[-46.47909,-23.5168],[-46.4801,-23.51744],[-46.48044,-23.51752],[-46.48088,-23.51749],[-46.48135,-23.51737],[-46.48235,-23.51695],[-46.48267,-23.51666],[-46.48285,-23.51657],[-46.48381,-23.51619],[-46.48494,-23.51563],[-46.4855,-23.51541],[-46.48656,-23.51491],[-46.48694,-23.51477],[-46.48721,-23.51471],[-46.48756,-23.51468],[-46.49022,-23.51496],[-46.49356,-23.51402],[-46.49377,-23.51398],[-46.49475,-23.51398],[-46.49578,-23.5141],[-46.49689,-23.51443],[-46.4991,-23.51526],[-46.49928,-23.51528],[-46.49949,-23.51524],[-46.49971,-23.51511],[-46.49977,-23.51504],[-46.50148,-23.51289],[-46.50151,-23.51281],[-46.5015,-23.51267],[-46.50137,-23.51223],[-46.50144,-23.51198],[-46.50154,-23.51186],[-46.50341,-23.51246],[-46.50366,-23.51255],[-46.50392,-23.5127],[-46.50412,-23.51283],[-46.5053,-23.51381],[-46.50741,-23.51509],[-46.5084,-23.51573],[-46.50862,-23.51598],[-46.50921,-23.51683],[-46.51014,-23.51794],[-46.51057,-23.51814],[-46.5121,-23.51875],[-46.51249,-23.51896],[-46.51314,-23.51945],[-46.51375,-23.51981],[-46.51423,-23.52005],[-46.51578,-23.52109],[-46.51781,-23.5223],[-46.51857,-23.52264],[-46.51954,-23.52298],[-46.5202,-23.52316],[-46.52059,-23.52316],[-46.52211,-23.52305],[-46.52193,-23.52192],[-46.52368,-23.52161],[-46.52445,-23.52134],[-46.52539,-23.52094],[-46.52618,-23.5222],[-46.52724,-23.52182],[-46.52785,-23.52153],[-46.52802,-23.52148],[-46.52838,-23.52146],[-46.52904,-23.52152],[-46.52784,-23.52916],[-46.52785,-23.52989],[-46.52782,-23.53001],[-46.52797,-23.53011],[-46.52774,-23.53156],[-46.52776,-23.53162],[-46.5279,-23.53173],[-46.52835,-23.53174],[-46.52848,-23.53167],[-46.52866,-23.53163],[-46.53021,-23.53142],[-46.53219,-23.53125],[-46.53232,-23.53126],[-46.53243,-23.53132],[-46.53331,-23.53136],[-46.53371,-23.53141],[-46.53554,-23.53174],[-46.5357,-23.53181],[-46.53944,-23.53253],[-46.54001,-23.53275],[-46.54079,-23.53326],[-46.54127,-23.53348],[-46.54181,-23.53359],[-46.54213,-23.53369],[-46.54483,-23.5342],[-46.54734,-23.53463],[-46.54818,-23.53473],[-46.54898,-23.53494],[-46.55374,-23.53595],[-46.55554,-23.53637],[-46.5572,-23.53666],[-46.56692,-23.53859],[-46.56755,-23.53863],[-46.57127,-23.53929],[-46.57206,-23.53946],[-46.57271,-23.53966],[-46.57467,-23.54036],[-46.5778,-23.541],[-46.57939,-23.54162],[-46.58037,-23.54191],[-46.58192,-23.54217],[-46.58715,-23.54319],[-46.58748,-23.54282],[-46.58753,-23.5428],[-46.58793,-23.54287],[-46.58813,-23.54308],[-46.59251,-23.5439],[-46.59331,-23.54426],[-46.59371,-23.5444],[-46.59563,-23.5448],[-46.59659,-23.54492],[-46.59692,-23.54507],[-46.59804,-23.54539],[-46.59883,-23.5457],[-46.60478,-23.54909],[-46.61003,-23.55194],[-46.6109,-23.55237],[-46.61127,-23.55251],[-46.61244,-23.55283],[-46.61346,-23.55283],[-46.61368,-23.55274],[-46.61512,-23.55266],[-46.61852,-23.55231],[-46.6186,-23.55233],[-46.61921,-23.55227],[-46.62348,-23.55172],[-46.62465,-23.55152],[-46.62495,-23.55119],[-46.62519,-23.55028],[-46.62559,-23.54929],[-46.62576,-23.54899],[-46.62611,-23.54849],[-46.6263,-23.54811],[-46.62638,-23.54783],[-46.62646,-23.54726],[-46.6264,-23.54606],[-46.62634,-23.54575],[-46.62632,-23.54484],[-46.62652,-23.54486],[-46.62672,-23.54394],[-46.62683,-23.54367],[-46.62712,-23.54335],[-46.62751,-23.54315],[-46.62784,-23.54307],[-46.6283,-23.54309],[-46.62858,-23.54316],[-46.6289,-23.54329],[-46.62926,-23.54354],[-46.63048,-23.54484],[-46.63057,-23.54514],[-46.63034,-23.54581],[-46.63019,-23.54596],[-46.63015,-23.54607],[-46.62982,-23.54658],[-46.62916,-23.54753],[-46.6291,-23.54771],[-46.6291,-23.54777],[-46.62914,-23.54782],[-46.62945,-23.54801],[-46.62962,-23.54787],[-46.62986,-23.54753]]}},{"type":"Feature","properties":{"code":"3459-10","sentido":2,"headsign":"Itaim Paulista","name":"Itaim Paulista - Term. Pq. D. Pedro Ii"},"geometry":{"type":"LineString","coordinates":[[-46.62973,-23.54772],[-46.6308,-23.54612],[-46.63047,-23.54597],[-46.63019,-23.54596],[-46.63015,-23.54607],[-46.62943,-23.54715],[-46.62893,-23.54786],[-46.62845,-23.54846],[-46.62823,-23.5488],[-46.62818,-23.54944],[-46.62826,-23.5501],[-46.62825,-23.55036],[-46.62821,-23.55049],[-46.62799,-23.55094],[-46.62772,-23.55139],[-46.62771,-23.55153],[-46.62732,-23.55217],[-46.62705,-23.55296],[-46.62674,-23.55338],[-46.62649,-23.55356],[-46.6263,-23.55361],[-46.62608,-23.55361],[-46.62566,-23.55347],[-46.62555,-23.55339],[-46.62547,-23.55328],[-46.6254,-23.5531],[-46.62537,-23.55294],[-46.6254,-23.55258],[-46.62536,-23.55233],[-46.62529,-23.55216],[-46.62523,-23.55207],[-46.62506,-23.55197],[-46.62483,-23.55194],[-46.62455,-23.55195],[-46.62213,-23.55225],[-46.62192,-23.55221],[-46.62176,-23.55229],[-46.62112,-23.55239],[-46.61901,-23.55264],[-46.61865,-23.55271],[-46.61346,-23.55319],[-46.61293,-23.55319],[-46.61222,-23.55313],[-46.61161,-23.55299],[-46.61127,-23.55284],[-46.61111,-23.55272],[-46.61014,-23.55228],[-46.60727,-23.55075],[-46.60257,-23.54815],[-46.60231,-23.5481],[-46.60192,-23.54792],[-46.59988,-23.5468],[-46.59806,-23.54574],[-46.59643,-23.54519],[-46.58958,-23.54382],[-46.58297,-23.54254],[-46.5815,-23.5422],[-46.58041,-23.54199],[-46.58027,-23.54199],[-46.57927,-23.54172],[-46.57791,-23.54119],[-46.57728,-23.54104],[-46.57568,-23.54075],[-46.57483,-23.54054],[-46.57218,-23.53963],[-46.57184,-23.53955],[-46.57136,-23.53945],[-46.56955,-23.53917],[-46.56787,-23.53884],[-46.5668,-23.53871],[-46.56583,-23.5387],[-46.56525,-23.53862],[-46.56267,-23.53811],[-46.56204,-23.53792],[-46.56192,-23.53783],[-46.56029,-23.53741],[-46.55769,-23.53688],[-46.55691,-23.53675],[-46.55664,-23.53676],[-46.55649,-23.53667],[-46.55476,-23.53636],[-46.54906,-23.53513],[-46.54783,-23.53489],[-46.54483,-23.53438],[-46.54208,-23.53384],[-46.54153,-23.53377],[-46.54045,-23.53354],[-46.53935,-23.53323],[-46.53866,-23.53316],[-46.53773,-23.53298],[-46.53732,-23.53282],[-46.53652,-23.53261],[-46.53359,-23.53205],[-46.53279,-23.53199],[-46.53168,-23.53202],[-46.5302,-23.53221],[-46.52905,-23.5323],[-46.5288,-23.53259],[-46.52858,-23.53271],[-46.52769,-23.53279],[-46.52747,-23.53274],[-46.5274,-23.5327],[-46.52744,-23.53251],[-46.5274,-23.53242],[-46.52777,-23.53007],[-46.52783,-23.52998],[-46.52771,-23.52987],[-46.52753,-23.52951],[-46.52479,-23.52255],[-46.52211,-23.52305],[-46.52059,-23.52316],[-46.5202,-23.52316],[-46.51954,-23.52298],[-46.51816,-23.52247],[-46.51751,-23.52213],[-46.51544,-23.52088],[-46.51423,-23.52005],[-46.51375,-23.51981],[-46.51314,-23.51945],[-46.51249,-23.51896],[-46.5121,-23.51875],[-46.51057,-23.51814],[-46.51014,-23.51794],[-46.50921,-23.51683],[-46.50862,-23.51598],[-46.5084,-23.51573],[-46.50741,-23.51509],[-46.5053,-23.51381],[-46.5043,-23.51298],[-46.504,-23.51288],[-46.50295,-23.51268],[-46.50205,-23.51238],[-46.50176,-23.51282],[-46.49994,-23.51509],[-46.49968,-23.51533],[-46.49948,-23.5154],[-46.49924,-23.51541],[-46.49898,-23.51537],[-46.49681,-23.51457],[-46.49571,-23.51426],[-46.49466,-23.51411],[-46.49368,-23.51413],[-46.49027,-23.51511],[-46.48758,-23.51484],[-46.48708,-23.51489],[-46.48663,-23.51504],[-46.48434,-23.51614],[-46.48278,-23.5168],[-46.48237,-23.51708],[-46.4817,-23.5174],[-46.48154,-23.51747],[-46.48072,-23.5177],[-46.48048,-23.51771],[-46.48011,-23.51763],[-46.47899,-23.51695],[-46.47818,-23.51668],[-46.478,-23.51665],[-46.47737,-23.51667],[-46.47641,-23.51682],[-46.47557,-23.5172],[-46.47536,-23.51747],[-46.4749,-23.51827],[-46.47459,-23.51867],[-46.47449,-23.51885],[-46.47433,-23.519],[-46.47393,-23.51914],[-46.47228,-23.51931],[-46.47115,-23.51954],[-46.47087,-23.51952],[-46.47016,-23.51929],[-46.46987,-23.51913],[-46.4695,-23.5188],[-46.46936,-23.51865],[-46.46786,-23.51621],[-46.46752,-23.51612],[-46.46335,-23.51548],[-46.45979,-23.51544],[-46.45574,-23.51544],[-46.45509,-23.51541],[-46.45214,-23.51429],[-46.45176,-23.51417],[-46.44378,-23.51355],[-46.44273,-23.50253],[-46.44208,-23.49629],[-46.4437,-23.49373],[-46.44366,-23.49362],[-46.44359,-23.49356],[-46.44351,-23.49358],[-46.44141,-23.49339],[-46.44108,-23.49346],[-46.44012,-23.4937],[-46.43983,-23.49381],[-46.43776,-23.49488],[-46.43743,-23.495],[-46.43701,-23.49505],[-46.43122,-23.49531],[-46.4295,-23.49537],[-46.42892,-23.49522],[-46.42783,-23.49485],[-46.4272,-23.4947],[-46.42054,-23.4941],[-46.41735,-23.49388],[-46.41667,-23.49393],[-46.41621,-23.49403],[-46.41371,-23.49468],[-46.41072,-23.49502],[-46.40995,-23.49503],[-46.40894,-23.49493],[-46.40614,-23.49478],[-46.40542,-23.49491],[-46.40475,-23.49516],[-46.40485,-23.49523],[-46.40489,-23.49532],[-46.40492,-23.49595],[-46.40505,-23.49645],[-46.40529,-23.49686],[-46.40119,-23.49771],[-46.40127,-23.49781],[-46.4013,-23.49795],[-46.40108,-23.49914],[-46.40104,-23.49967],[-46.40112,-23.50003],[-46.40143,-23.50064],[-46.40149,-23.50111],[-46.40049,-23.50131],[-46.40049,-23.50145],[-46.39807,-23.5014],[-46.39777,-23.50182],[-46.39335,-23.50009],[-46.39162,-23.50149],[-46.39146,-23.50157],[-46.39093,-23.50273],[-46.38995,-23.50468],[-46.38881,-23.50587],[-46.38835,-23.50643],[-46.38701,-23.50814],[-46.38592,-23.50968],[-46.38571,-23.51002],[-46.38417,-23.51137],[-46.38387,-23.51155],[-46.38288,-23.51228],[-46.38163,-23.51363],[-46.38042,-23.51503],[-46.38085,-23.51516],[-46.38278,-23.51559],[-46.38328,-23.51593],[-46.38455,-23.51691],[-46.38567,-23.5165]]}},{"type":"Feature","properties":{"code":"4310-10","sentido":1,"headsign":"Term. Pq. D. Pedro Ii","name":"E.t. Itaquera - Term. Pq. D. Pedro Ii"},"geometry":{"type":"LineString","coordinates":[[-46.45406,-23.53517],[-46.45433,-23.53542],[-46.4542,-23.53556],[-46.45366,-23.53516],[-46.45352,-23.53502],[-46.45249,-23.53429],[-46.45247,-23.53413],[-46.45252,-23.53403],[-46.4527,-23.53397],[-46.4528,-23.53398],[-46.45386,-23.53473],[-46.45445,-23.53501],[-46.4547,-23.53557],[-46.45574,-23.53711],[-46.45589,-23.53757],[-46.45647,-23.53825],[-46.45694,-23.53864],[-46.4578,-23.53922],[-46.45907,-23.53996],[-46.45951,-23.54008],[-46.45993,-23.54012],[-46.46033,-23.54008],[-46.46137,-23.53985],[-46.46212,-23.53978],[-46.46273,-23.53982],[-46.46334,-23.53997],[-46.4638,-23.54011],[-46.4642,-23.54028],[-46.46515,-23.54085],[-46.46541,-23.54103],[-46.46559,-23.54121],[-46.46592,-23.54174],[-46.466,-23.54176],[-46.46636,-23.54206],[-46.46689,-23.5423],[-46.46719,-23.5424],[-46.47056,-23.54295],[-46.47075,-23.54299],[-46.47125,-23.5432],[-46.47143,-23.54324],[-46.47196,-23.54327],[-46.47275,-23.54309],[-46.4734,-23.54305],[-46.47382,-23.54307],[-46.47522,-23.54328],[-46.47617,-23.54327],[-46.47965,-23.54257],[-46.48242,-23.54197],[-46.48285,-23.54183],[-46.48313,-23.5417],[-46.48361,-23.54145],[-46.48419,-23.541],[-46.48553,-23.53963],[-46.48602,-23.53882],[-46.48676,-23.53718],[-46.48701,-23.53683],[-46.48727,-23.53658],[-46.48759,-23.53632],[-46.48788,-23.53615],[-46.48854,-23.53594],[-46.48904,-23.53586],[-46.49097,-23.53591],[-46.49422,-23.53559],[-46.49518,-23.53539],[-46.49555,-23.53526],[-46.496,-23.53505],[-46.49678,-23.53455],[-46.49783,-23.53366],[-46.49821,-23.53338],[-46.50113,-23.53178],[-46.50567,-23.52866],[-46.5062,-23.52835],[-46.5069,-23.52803],[-46.50775,-23.52777],[-46.5081,-23.5277],[-46.50883,-23.52762],[-46.50953,-23.52763],[-46.51019,-23.52769],[-46.51306,-23.52813],[-46.51399,-23.52833],[-46.51512,-23.52879],[-46.5199,-23.53106],[-46.52063,-23.53129],[-46.52128,-23.53145],[-46.52226,-23.53162],[-46.52352,-23.53172],[-46.52436,-23.53175],[-46.52845,-23.53222],[-46.52932,-23.53222],[-46.53184,-23.53194],[-46.53272,-23.53192],[-46.53363,-23.53198],[-46.53567,-23.53233],[-46.53665,-23.53253],[-46.53783,-23.53285],[-46.53943,-23.53316],[-46.54071,-23.53352],[-46.54164,-23.53369],[-46.5423,-23.53371],[-46.54483,-23.5342],[-46.54734,-23.53463],[-46.54818,-23.53473],[-46.54898,-23.53494],[-46.55374,-23.53595],[-46.55554,-23.53637],[-46.5572,-23.53666],[-46.56692,-23.53859],[-46.56755,-23.53863],[-46.57157,-23.53935],[-46.5725,-23.53959],[-46.57467,-23.54036],[-46.5778,-23.541],[-46.57939,-23.54162],[-46.58037,-23.54191],[-46.58192,-23.54217],[-46.58715,-23.54319],[-46.58748,-23.54282],[-46.58753,-23.5428],[-46.58793,-23.54287],[-46.58813,-23.54308],[-46.59251,-23.5439],[-46.59331,-23.54426],[-46.59371,-23.5444],[-46.59563,-23.5448],[-46.59659,-23.54492],[-46.59692,-23.54507],[-46.59804,-23.54539],[-46.59883,-23.5457],[-46.60478,-23.54909],[-46.61003,-23.55194],[-46.6109,-23.55237],[-46.61127,-23.55251],[-46.61244,-23.55283],[-46.61346,-23.55283],[-46.61368,-23.55274],[-46.61512,-23.55266],[-46.61852,-23.55231],[-46.6186,-23.55233],[-46.61921,-23.55227],[-46.62348,-23.55172],[-46.62465,-23.55152],[-46.62495,-23.55119],[-46.62519,-23.55028],[-46.62559,-23.54929],[-46.62576,-23.54899],[-46.62611,-23.54849],[-46.6263,-23.54811],[-46.62638,-23.54783],[-46.62646,-23.54726],[-46.6264,-23.54606],[-46.62634,-23.54575],[-46.62632,-23.54484],[-46.62652,-23.54486],[-46.62672,-23.54394],[-46.62683,-23.54367],[-46.62712,-23.54335],[-46.62751,-23.54315],[-46.62784,-23.54307],[-46.6283,-23.54309],[-46.62858,-23.54316],[-46.6289,-23.54329],[-46.62926,-23.54354],[-46.63048,-23.54484],[-46.63101,-23.54515],[-46.63113,-23.5454],[-46.63119,-23.54564],[-46.63122,-23.54586],[-46.63117,-23.54621],[-46.63097,-23.5467],[-46.63033,-23.54765]]}},{"type":"Feature","properties":{"code":"4310-10","sentido":2,"headsign":"E.t. Itaquera","name":"E.t. Itaquera - Term. Pq. D. Pedro Ii"},"geometry":{"type":"LineString","coordinates":[[-46.63036,-23.5476],[-46.62933,-23.54906],[-46.62879,-23.54996],[-46.62811,-23.55092],[-46.62746,-23.55192],[-46.62732,-23.55217],[-46.62705,-23.55296],[-46.62674,-23.55338],[-46.62649,-23.55356],[-46.6263,-23.55361],[-46.62608,-23.55361],[-46.62566,-23.55347],[-46.62555,-23.55339],[-46.62547,-23.55328],[-46.6254,-23.5531],[-46.62537,-23.55294],[-46.6254,-23.55258],[-46.62536,-23.55233],[-46.62529,-23.55216],[-46.62523,-23.55207],[-46.62506,-23.55197],[-46.62483,-23.55194],[-46.62455,-23.55195],[-46.62213,-23.55225],[-46.62192,-23.55221],[-46.62176,-23.55229],[-46.62112,-23.55239],[-46.61901,-23.55264],[-46.61865,-23.55271],[-46.61346,-23.55319],[-46.61293,-23.55319],[-46.61222,-23.55313],[-46.61161,-23.55299],[-46.61127,-23.55284],[-46.61111,-23.55272],[-46.61014,-23.55228],[-46.60727,-23.55075],[-46.60257,-23.54815],[-46.60231,-23.5481],[-46.60192,-23.54792],[-46.59988,-23.5468],[-46.59806,-23.54574],[-46.59643,-23.54519],[-46.58958,-23.54382],[-46.58297,-23.54254],[-46.5815,-23.5422],[-46.58041,-23.54199],[-46.58027,-23.54199],[-46.57927,-23.54172],[-46.57791,-23.54119],[-46.57728,-23.54104],[-46.57568,-23.54075],[-46.57483,-23.54054],[-46.57218,-23.53963],[-46.57184,-23.53955],[-46.57136,-23.53945],[-46.56955,-23.53917],[-46.56787,-23.53884],[-46.5668,-23.53871],[-46.56583,-23.5387],[-46.56525,-23.53862],[-46.56267,-23.53811],[-46.56204,-23.53792],[-46.56192,-23.53783],[-46.56029,-23.53741],[-46.55769,-23.53688],[-46.55691,-23.53675],[-46.55664,-23.53676],[-46.55649,-23.53667],[-46.55476,-23.53636],[-46.54906,-23.53513],[-46.54783,-23.53489],[-46.54483,-23.53438],[-46.54373,-23.53416],[-46.54315,-23.53414],[-46.54224,-23.53397],[-46.54153,-23.53377],[-46.54045,-23.53354],[-46.53935,-23.53323],[-46.53866,-23.53316],[-46.53773,-23.53298],[-46.53732,-23.53282],[-46.53652,-23.53261],[-46.53359,-23.53205],[-46.53279,-23.53199],[-46.53168,-23.53202],[-46.5302,-23.53221],[-46.52888,-23.53231],[-46.52783,-23.53223],[-46.52469,-23.53185],[-46.52355,-23.53179],[-46.52273,-23.53179],[-46.52175,-23.53169],[-46.52044,-23.53135],[-46.51966,-23.53105],[-46.51499,-23.5288],[-46.51405,-23.52842],[-46.51316,-23.52821],[-46.51079,-23.52785],[-46.51005,-23.52779],[-46.50861,-23.52773],[-46.50823,-23.52775],[-46.50792,-23.5278],[-46.50723,-23.52798],[-46.50648,-23.52828],[-46.50605,-23.52851],[-46.50545,-23.5289],[-46.50182,-23.53138],[-46.5006,-23.53209],[-46.49821,-23.53338],[-46.49783,-23.53366],[-46.49678,-23.53455],[-46.496,-23.53505],[-46.49555,-23.53526],[-46.49518,-23.53539],[-46.49422,-23.53559],[-46.49097,-23.53591],[-46.48904,-23.53586],[-46.4887,-23.5359],[-46.48809,-23.53609],[-46.48747,-23.53652],[-46.48729,-23.53667],[-46.48704,-23.53695],[-46.48694,-23.53711],[-46.48681,-23.53743],[-46.48634,-23.53878],[-46.48603,-23.53932],[-46.48461,-23.54072],[-46.48355,-23.54167],[-46.48305,-23.54192],[-46.47907,-23.54278],[-46.47897,-23.54285],[-46.4786,-23.543],[-46.47784,-23.54322],[-46.47644,-23.54348],[-46.47555,-23.54353],[-46.47371,-23.54327],[-46.47339,-23.54328],[-46.47298,-23.54332],[-46.47208,-23.54359],[-46.47173,-23.54365],[-46.47146,-23.54365],[-46.47116,-23.54362],[-46.46971,-23.54335],[-46.46901,-23.54316],[-46.46807,-23.54296],[-46.46657,-23.54285],[-46.46642,-23.54279],[-46.46622,-23.54258],[-46.46602,-23.54223],[-46.46572,-23.54151],[-46.46561,-23.54134],[-46.46541,-23.54113],[-46.46473,-23.54067],[-46.46434,-23.54044],[-46.46391,-23.54024],[-46.46306,-23.53999],[-46.46212,-23.53989],[-46.46129,-23.53995],[-46.46112,-23.54002],[-46.46048,-23.54015],[-46.4599,-23.5402],[-46.45935,-23.54013],[-46.45906,-23.54004],[-46.45862,-23.53983],[-46.45753,-23.53915],[-46.45658,-23.53846],[-46.45604,-23.53789],[-46.45568,-23.53745],[-46.45459,-23.5358],[-46.45363,-23.53487],[-46.4534,-23.5347],[-46.45326,-23.5346],[-46.45286,-23.53453],[-46.45249,-23.53429],[-46.45247,-23.53413],[-46.45252,-23.53403],[-46.4527,-23.53397],[-46.4528,-23.53398],[-46.45292,-23.53407],[-46.4529,-23.5342],[-46.45296,-23.53431],[-46.45346,-23.53468],[-46.45355,-23.53471],[-46.45416,-23.53526]]}},{"type":"Feature","properties":{"code":"809P-10","sentido":1,"headsign":"Term. Pinheiros","name":"Term. Campo Limpo - Term. Pinheiros"},"geometry":{"type":"LineString","coordinates":[[-46.77344,-23.63111],[-46.77417,-23.63079],[-46.77382,-23.63044],[-46.77159,-23.63162],[-46.76997,-23.62985],[-46.76954,-23.62946],[-46.76913,-23.62919],[-46.76823,-23.6287],[-46.76783,-23.62842],[-46.76745,-23.62808],[-46.76549,-23.62572],[-46.76488,-23.62503],[-46.76464,-23.6247],[-46.76427,-23.62398],[-46.76403,-23.62363],[-46.76368,-23.62328],[-46.76324,-23.62296],[-46.76299,-23.62282],[-46.76243,-23.62261],[-46.76102,-23.62232],[-46.76034,-23.62222],[-46.75882,-23.62215],[-46.75844,-23.62203],[-46.75804,-23.62176],[-46.75785,-23.62152],[-46.75775,-23.62132],[-46.75767,-23.62102],[-46.75766,-23.6207],[-46.75852,-23.61832],[-46.75853,-23.61812],[-46.7585,-23.61804],[-46.75833,-23.61782],[-46.75777,-23.61736],[-46.75743,-23.61697],[-46.75688,-23.61595],[-46.75663,-23.61557],[-46.75564,-23.61435],[-46.7553,-23.61343],[-46.7551,-23.61309],[-46.75458,-23.6124],[-46.7543,-23.61184],[-46.75417,-23.61179],[-46.75389,-23.61152],[-46.75359,-23.61138],[-46.75287,-23.61089],[-46.75255,-23.61066],[-46.75239,-23.61047],[-46.75226,-23.61023],[-46.75225,-23.61001],[-46.75219,-23.60986],[-46.75182,-23.60935],[-46.75146,-23.6083],[-46.75132,-23.6078],[-46.75111,-23.60726],[-46.75104,-23.6072],[-46.74978,-23.60681],[-46.74866,-23.60653],[-46.74764,-23.60619],[-46.74653,-23.60557],[-46.7461,-23.60526],[-46.74566,-23.60487],[-46.74514,-23.60424],[-46.74474,-23.60363],[-46.74428,-23.60277],[-46.74411,-23.60253],[-46.7439,-23.60226],[-46.74244,-23.60064],[-46.74142,-23.5993],[-46.74017,-23.59722],[-46.73882,-23.59533],[-46.73858,-23.59518],[-46.73749,-23.59467],[-46.73175,-23.59217],[-46.72964,-23.58992],[-46.72893,-23.58922],[-46.72867,-23.58902],[-46.72711,-23.58811],[-46.72611,-23.58739],[-46.7258,-23.58722],[-46.72426,-23.58661],[-46.72062,-23.58525],[-46.71946,-23.58496],[-46.71832,-23.58481],[-46.71784,-23.58467],[-46.71747,-23.58446],[-46.71708,-23.58418],[-46.71676,-23.58401],[-46.71512,-23.58338],[-46.71391,-23.58285],[-46.71384,-23.58285],[-46.71283,-23.58236],[-46.71232,-23.58201],[-46.71206,-23.58178],[-46.71175,-23.58144],[-46.71141,-23.58095],[-46.71141,-23.58091],[-46.71077,-23.57987],[-46.71042,-23.57946],[-46.71001,-23.57917],[-46.70859,-23.57829],[-46.70835,-23.57806],[-46.70819,-23.57785],[-46.70794,-23.5774],[-46.70638,-23.57403],[-46.70634,-23.57394],[-46.70636,-23.57382],[-46.70628,-23.57365],[-46.70608,-23.57346],[-46.70435,-23.5726],[-46.70262,-23.57219],[-46.70222,-23.57206],[-46.70205,-23.57196],[-46.70122,-23.57164],[-46.70072,-23.57148],[-46.70049,-23.57142],[-46.69963,-23.57139],[-46.69897,-23.57117],[-46.69741,-23.56969],[-46.69713,-23.56871],[-46.697,-23.56837],[-46.69694,-23.56827],[-46.69672,-23.5681],[-46.69651,-23.56761],[-46.69651,-23.56529],[-46.69813,-23.56539],[-46.69901,-23.56531],[-46.70105,-23.56504],[-46.70109,-23.56591],[-46.70173,-23.56582],[-46.70178,-23.56585],[-46.70181,-23.56592],[-46.70177,-23.56604],[-46.70137,-23.5667]]}},{"type":"Feature","properties":{"code":"809P-10","sentido":2,"headsign":"Term. Campo Limpo","name":"Term. Campo Limpo - Term. Pinheiros"},"geometry":{"type":"LineString","coordinates":[[-46.70139,-23.56668],[-46.70135,-23.56674],[-46.70151,-23.56686],[-46.70131,-23.56718],[-46.70128,-23.56728],[-46.70071,-23.56762],[-46.70012,-23.56786],[-46.6996,-23.56774],[-46.69933,-23.56772],[-46.69651,-23.56761],[-46.6955,-23.56762],[-46.69403,-23.5675],[-46.69372,-23.56726],[-46.69345,-23.56741],[-46.69328,-23.56756],[-46.69271,-23.56817],[-46.69118,-23.57064],[-46.69115,-23.57085],[-46.69119,-23.57093],[-46.69142,-23.57102],[-46.69478,-23.57138],[-46.695,-23.57145],[-46.69814,-23.57179],[-46.70187,-23.57228],[-46.70207,-23.57229],[-46.70279,-23.57212],[-46.70313,-23.57212],[-46.70337,-23.57217],[-46.70429,-23.57248],[-46.70606,-23.57334],[-46.7063,-23.57353],[-46.70643,-23.57375],[-46.70795,-23.57709],[-46.7082,-23.5776],[-46.70844,-23.57795],[-46.70868,-23.57819],[-46.70892,-23.57837],[-46.71041,-23.57925],[-46.71074,-23.5796],[-46.71088,-23.5798],[-46.71154,-23.58089],[-46.71193,-23.58145],[-46.71234,-23.58186],[-46.71274,-23.58217],[-46.71312,-23.58238],[-46.71462,-23.58304],[-46.71703,-23.584],[-46.71767,-23.58445],[-46.71793,-23.58457],[-46.71848,-23.58472],[-46.71965,-23.58488],[-46.7207,-23.58516],[-46.72443,-23.58656],[-46.72575,-23.58709],[-46.7278,-23.58839],[-46.72887,-23.589],[-46.72908,-23.58916],[-46.73173,-23.59202],[-46.73187,-23.59214],[-46.73305,-23.59266],[-46.73358,-23.59286],[-46.73407,-23.59299],[-46.73516,-23.5934],[-46.73577,-23.59368],[-46.73631,-23.59403],[-46.73854,-23.59504],[-46.73893,-23.59527],[-46.74039,-23.59737],[-46.74151,-23.59925],[-46.7429,-23.60101],[-46.74368,-23.60181],[-46.7442,-23.60243],[-46.7453,-23.60429],[-46.74585,-23.6049],[-46.74677,-23.60558],[-46.74756,-23.60602],[-46.74856,-23.60637],[-46.75121,-23.60712],[-46.75136,-23.60722],[-46.75152,-23.60739],[-46.7516,-23.60751],[-46.75165,-23.60767],[-46.75178,-23.60854],[-46.75198,-23.60908],[-46.75236,-23.6097],[-46.75247,-23.61032],[-46.75254,-23.61047],[-46.75278,-23.61069],[-46.75375,-23.61135],[-46.75404,-23.61149],[-46.75419,-23.61147],[-46.75435,-23.61197],[-46.75458,-23.6124],[-46.7551,-23.61309],[-46.7553,-23.61343],[-46.75564,-23.61435],[-46.75663,-23.61557],[-46.75688,-23.61595],[-46.75743,-23.61697],[-46.75777,-23.61736],[-46.75833,-23.61782],[-46.7585,-23.61804],[-46.75853,-23.61812],[-46.75852,-23.61832],[-46.75766,-23.6207],[-46.75767,-23.62102],[-46.75775,-23.62132],[-46.75785,-23.62152],[-46.75804,-23.62176],[-46.75844,-23.62203],[-46.75882,-23.62215],[-46.76034,-23.62222],[-46.76102,-23.62232],[-46.76243,-23.62261],[-46.76299,-23.62282],[-46.76324,-23.62296],[-46.76368,-23.62328],[-46.76403,-23.62363],[-46.76427,-23.62398],[-46.76464,-23.6247],[-46.76488,-23.62503],[-46.76549,-23.62572],[-46.76745,-23.62808],[-46.76783,-23.62842],[-46.76823,-23.6287],[-46.76913,-23.62919],[-46.76968,-23.62958],[-46.76997,-23.62985],[-46.77182,-23.63188],[-46.77353,-23.63107]]}},{"type":"Feature","properties":{"code":"857P-10","sentido":1,"headsign":"Paraíso","name":"Term. Campo Limpo - Paraíso"},"geometry":{"type":"LineString","coordinates":[[-46.77315,-23.63124],[-46.77417,-23.63079],[-46.77376,-23.63039],[-46.77152,-23.63155],[-46.76997,-23.62985],[-46.76954,-23.62946],[-46.76913,-23.62919],[-46.76823,-23.6287],[-46.76783,-23.62842],[-46.76745,-23.62808],[-46.76549,-23.62572],[-46.76488,-23.62503],[-46.76464,-23.6247],[-46.76427,-23.62398],[-46.76403,-23.62363],[-46.76368,-23.62328],[-46.76324,-23.62296],[-46.76299,-23.62282],[-46.76243,-23.62261],[-46.76102,-23.62232],[-46.76034,-23.62222],[-46.75882,-23.62215],[-46.75844,-23.62203],[-46.75804,-23.62176],[-46.75785,-23.62152],[-46.75775,-23.62132],[-46.75767,-23.62102],[-46.75766,-23.6207],[-46.75852,-23.61832],[-46.75853,-23.61812],[-46.75844,-23.61794],[-46.75833,-23.61782],[-46.75777,-23.61736],[-46.75743,-23.61697],[-46.75688,-23.61595],[-46.75663,-23.61557],[-46.75564,-23.61435],[-46.7553,-23.61343],[-46.7551,-23.61309],[-46.75458,-23.6124],[-46.75435,-23.61197],[-46.75419,-23.61147],[-46.75424,-23.61159],[-46.75403,-23.61159],[-46.75359,-23.61138],[-46.75255,-23.61066],[-46.75239,-23.61047],[-46.75226,-23.61023],[-46.75225,-23.61001],[-46.75219,-23.60986],[-46.75182,-23.60935],[-46.7512,-23.60745],[-46.75111,-23.60726],[-46.75104,-23.6072],[-46.74948,-23.60672],[-46.74866,-23.60653],[-46.74764,-23.60619],[-46.74653,-23.60557],[-46.7461,-23.60526],[-46.74566,-23.60487],[-46.74514,-23.60424],[-46.74474,-23.60363],[-46.74428,-23.60277],[-46.74411,-23.60253],[-46.7439,-23.60226],[-46.74244,-23.60064],[-46.74142,-23.5993],[-46.74017,-23.59722],[-46.73882,-23.59533],[-46.73858,-23.59518],[-46.73749,-23.59467],[-46.73175,-23.59217],[-46.72964,-23.58992],[-46.72893,-23.58922],[-46.72867,-23.58902],[-46.72711,-23.58811],[-46.72611,-23.58739],[-46.72588,-23.58726],[-46.72426,-23.58661],[-46.72062,-23.58525],[-46.71946,-23.58496],[-46.71832,-23.58481],[-46.71784,-23.58467],[-46.71747,-23.58446],[-46.71708,-23.58418],[-46.71676,-23.58401],[-46.71512,-23.58338],[-46.71391,-23.58285],[-46.71384,-23.58285],[-46.71311,-23.58251],[-46.71261,-23.58222],[-46.71206,-23.58178],[-46.71175,-23.58144],[-46.71141,-23.58095],[-46.71141,-23.58091],[-46.71077,-23.57987],[-46.71042,-23.57946],[-46.71001,-23.57917],[-46.70859,-23.57829],[-46.70835,-23.57806],[-46.70819,-23.57785],[-46.70794,-23.5774],[-46.70638,-23.57403],[-46.70634,-23.57394],[-46.70636,-23.57382],[-46.70628,-23.57365],[-46.70608,-23.57346],[-46.70593,-23.57337],[-46.70435,-23.5726],[-46.70417,-23.57263],[-46.70413,-23.57256],[-46.704,-23.57258],[-46.70304,-23.57242],[-46.70162,-23.57237],[-46.69837,-23.57194],[-46.69321,-23.57135],[-46.69199,-23.57123],[-46.69115,-23.5712],[-46.69061,-23.57108],[-46.67669,-23.56372],[-46.67643,-23.56356],[-46.6749,-23.56239],[-46.67395,-23.56178],[-46.67185,-23.56053],[-46.66811,-23.55845],[-46.66735,-23.55799],[-46.66645,-23.55734],[-46.66607,-23.55712],[-46.66541,-23.55679],[-46.66445,-23.55653],[-46.6641,-23.55647],[-46.6635,-23.55618],[-46.66295,-23.55599],[-46.66284,-23.55601],[-46.6627,-23.55609],[-46.66209,-23.55659],[-46.66128,-23.55732],[-46.6607,-23.55778],[-46.65928,-23.55902],[-46.65588,-23.56206],[-46.64904,-23.56772],[-46.64565,-23.5703],[-46.64429,-23.57136],[-46.64321,-23.57225],[-46.64305,-23.57243],[-46.64281,-23.57288],[-46.64108,-23.57652],[-46.64124,-23.57661],[-46.64323,-23.57691],[-46.64363,-23.57602],[-46.64275,-23.57568]]}},{"type":"Feature","properties":{"code":"857P-10","sentido":2,"headsign":"Term. Campo Limpo","name":"Term. Campo Limpo - Paraíso"},"geometry":{"type":"LineString","coordinates":[[-46.6428,-23.5757],[-46.64266,-23.57564],[-46.64311,-23.57469],[-46.642,-23.57425],[-46.64284,-23.5725],[-46.64303,-23.5722],[-46.64488,-23.57071],[-46.64898,-23.5676],[-46.65577,-23.56195],[-46.65705,-23.56084],[-46.65795,-23.55998],[-46.66101,-23.55723],[-46.66141,-23.55695],[-46.66195,-23.55647],[-46.66269,-23.55589],[-46.66333,-23.55525],[-46.66355,-23.55512],[-46.66379,-23.55506],[-46.66404,-23.55507],[-46.6642,-23.55512],[-46.66453,-23.55536],[-46.66543,-23.55627],[-46.66589,-23.55667],[-46.66691,-23.55731],[-46.66759,-23.55786],[-46.66817,-23.55827],[-46.66863,-23.55858],[-46.67194,-23.56041],[-46.6745,-23.56193],[-46.67663,-23.56351],[-46.68572,-23.56832],[-46.68993,-23.5705],[-46.69011,-23.57064],[-46.69069,-23.57095],[-46.69094,-23.57102],[-46.69105,-23.571],[-46.69169,-23.57104],[-46.69395,-23.57128],[-46.69478,-23.57138],[-46.695,-23.57145],[-46.69814,-23.57179],[-46.70187,-23.57228],[-46.70207,-23.57229],[-46.70279,-23.57212],[-46.70313,-23.57212],[-46.70337,-23.57217],[-46.70429,-23.57248],[-46.70606,-23.57334],[-46.7063,-23.57353],[-46.70643,-23.57375],[-46.70795,-23.57709],[-46.7082,-23.5776],[-46.70844,-23.57795],[-46.70868,-23.57819],[-46.70892,-23.57837],[-46.71041,-23.57925],[-46.71074,-23.5796],[-46.71088,-23.5798],[-46.71154,-23.58089],[-46.71193,-23.58145],[-46.71234,-23.58186],[-46.71274,-23.58217],[-46.71312,-23.58238],[-46.71462,-23.58304],[-46.71703,-23.584],[-46.71767,-23.58445],[-46.71793,-23.58457],[-46.71848,-23.58472],[-46.71965,-23.58488],[-46.7207,-23.58516],[-46.72443,-23.58656],[-46.72575,-23.58709],[-46.7278,-23.58839],[-46.72887,-23.589],[-46.72908,-23.58916],[-46.73173,-23.59202],[-46.73187,-23.59214],[-46.73305,-23.59266],[-46.73358,-23.59286],[-46.73407,-23.59299],[-46.73516,-23.5934],[-46.73577,-23.59368],[-46.73631,-23.59403],[-46.73854,-23.59504],[-46.73893,-23.59527],[-46.74039,-23.59737],[-46.74151,-23.59925],[-46.7429,-23.60101],[-46.74368,-23.60181],[-46.7442,-23.60243],[-46.7453,-23.60429],[-46.74585,-23.6049],[-46.74677,-23.60558],[-46.74756,-23.60602],[-46.74856,-23.60637],[-46.75121,-23.60712],[-46.75136,-23.60722],[-46.75152,-23.60739],[-46.7516,-23.60751],[-46.75165,-23.60767],[-46.75178,-23.60854],[-46.75198,-23.60908],[-46.75236,-23.6097],[-46.75247,-23.61032],[-46.75254,-23.61047],[-46.75278,-23.61069],[-46.75375,-23.61135],[-46.75404,-23.61149],[-46.75419,-23.61147],[-46.75435,-23.61197],[-46.75458,-23.6124],[-46.7551,-23.61309],[-46.7553,-23.61343],[-46.75564,-23.61435],[-46.75663,-23.61557],[-46.75688,-23.61595],[-46.75743,-23.61697],[-46.75777,-23.61736],[-46.75833,-23.61782],[-46.7585,-23.61804],[-46.75853,-23.61812],[-46.75852,-23.61832],[-46.75766,-23.6207],[-46.75767,-23.62102],[-46.75775,-23.62132],[-46.75785,-23.62152],[-46.75804,-23.62176],[-46.75844,-23.62203],[-46.75882,-23.62215],[-46.76034,-23.62222],[-46.76102,-23.62232],[-46.76243,-23.62261],[-46.76299,-23.62282],[-46.76324,-23.62296],[-46.76368,-23.62328],[-46.76403,-23.62363],[-46.76427,-23.62398],[-46.76464,-23.6247],[-46.76488,-23.62503],[-46.76549,-23.62572],[-46.76745,-23.62808],[-46.76783,-23.62842],[-46.76823,-23.6287],[-46.76913,-23.62919],[-46.76968,-23.62958],[-46.76997,-23.62985],[-46.77182,-23.63188],[-46.77324,-23.63119]]}}]}